"service_id";"service_class_id";"service_name";"agency";"street";"city";"state";"zipcode";"country";"url";"contact_phone";"contact_name";"contact_email";"contract_address"
1;1;"Tutoring in Palo Alto";"Mitchell Park Library";"3700 Middlefield Road";"Palo Alto";"CA";"94303";"USA";"cityofpaloalto.org/library";"";"";"";""
2;1;"Congregation Beth Am";"";"26790 Arastrodero Road";"Palo Alto";"CA";"94022";"USA";"www.betham.org";"";"";"";""
3;1;"YMCA - Kids";"";"3412 Ross road";"Palo Alto";"CA";"94303";"USA";"ymcasc.org/paloalto";"";"";"";""
4;1;"Teen Arts Council- Childresn's Theatre";"";"1305 Middlefield";"Palo Alto";"CA";"94301";"USA";"cityofpaloalto.org";"";"";"";""
5;1;"Jewish Community Center - Kids";"";"4000 Middlefield";"Palo Alto";"CA";"94303";"USA";"www.paloaltojcc.org";"";"";"";""
6;5;"Palo Alto Youth Council";"";"3800 Middlefield Road";"Palo Alto";"CA";"94303";"USA";"cityofpaloalto.org";"";"";"";""
7;1;"Lucie Stern Community Center";"";"1305 Middlefield";"Palo Alto";"CA";"94301";"USA";"cityofpaloalto.org";"";"";"";""
8;1;"Tutoring in Bay Area";"Menlo Park Presbyterian Church";"Department of Athletics";"Menlo Park";"CA";"94025-4682";"USA";"mppc.org";"";"";"";""
9;1;"East Palo Alto  Tutor and Tennis - Stanford";"EPATT";"1305 Middlefield";"Stanford";"CA";"94305";"USA";"www.epatt.org/";"";"";"";""
10;1;"BBBS of the Bay Area";"";"731 Market Street 6th Floor";"San Francisco";"CA";"94103";"USA";"bbbsbayarea.org";"";"";"";""
11;1;"Palo Alto High School";"Academic Resource Center";"50 Embarcadero Road";"Palo Alto";"CA";"94301";"USA";"www.paly.net";"";"";"";""
12;1;"Wisdom Culture and Education Organization";"";"44577 S Grimmer Blvd";"Fremont";"CA";"94538-6309";"USA";"wceo.org";"";"";"";""
13;1;"El Carmelo Elementary School";"";"3024 Bryant Street";"Palo Alto";"CA";"94306";"USA";"www.pausd.org";"";"";"";""
14;1;"Nakayoshi Gakko";"";"575 N. shoreline Blvd";"Mountain View";"CA";"94043";"USA";"www.nakayoshigakko.org/";"";"";"";""
15;1;"Catholic Korean School of San Jose";"";"531 East Weddell Drive";"Sunnyvale";"CA";"94084";"USA";"www.koreanschoolca.org/";"";"";"";""
16;1;"Walter Hays Elementary School";"";"1525 Middlefield road";"Palo Alto";"CA";"94301";"USA";"www.pausd.org";"";"";"";""
17;1;"CK-12 Foundation";"";"1860 Embarcadero Road, Suite 100";"Palo Alto";"CA";"94303-3310";"USA";"www.ck12.org";"";"";"info@ck12.org";""
19;1;"Kidizens";"";"074 Fabian Way, Ste 1";"Palo Alto";"CA";"94303";"USA";"kidizenspaloalto.com";"";"";"";""
20;8;"Amigos De las Americas";"Peninsula Chapter";"P.O. Box 1319";"Menlo Park";"CA";"94026";"USA";"www.amigospeninsula.org/ ";"";"";"";""
21;1;"Math  Olympiad";"";"2091 Park Blvd";"Palo Alto";"CA";"94306";"USA";"";"";"";"";""
22;1;"Tzu Chi Academy";"";"P.O. Box 1125";"San Mateo";"CA";"94403";"USA";"northerncal.us.tzuchi.org/nc.nsf";"";"";"";""
23;1;"Ohlone Foreign Language Program ";"";"2458 W Bayshore #3";"Palo Alto";"CA";"94303";"USA";"www.pausd.org";"";"";"";""
24;1;"CISV";"";"19 Doner Ct";"San Jose";"CA";"94070";"USA";"www.cisv.org/";"";"";"";""
25;1;"PALY special Ed. Class 409";"PALY";"50 embarcadero Road";"Palo Alto";"CA";"94301";"USA";"www.paly.net";"";"";"";""
26;1;"Russian School of Mathmatics";"";"160 Saratoga Ave. Suite 280";"Santa Clara";"CA";"95051";"USA";"www.russianschool.com";"";"";"";""
27;1;"City of Palo Alto - Summer Counseler in training ";"Lucie Stern Center";"1451 Middlefield Road";"Palo Alto";"CA";"94301";"USA";"cityofpaloalto.org";"";"";"";""
28;1;"Tutoring in other areas/international";"No. 4 Middle School";"";"Xilinhaote";"InnerMongolia";"";"CHINA";"";"";"";"";""
29;1;"Ravenswood School District";"";"2120 Euclid Avenue";"East Palo Alto";"CA";"94303-1799";"USA";"www.ravenswood.k12.ca.us/";"";"";"";""
30;1;"Jin Family Tutoring Services";"";"Bldg 4, 46 East Zone Nandajie, Zhongguanchun, Haidian District";"Beijing";"";"";"CHINA";"";"";"";"";""
31;1;"Palo Alto Art Center";"";"1313 Newell Road";"Palo Alto";"CA";"94301";"USA";"cityofpaloalto.org";"";"";"";""
32;1;"Global Volunteers at Orphanage";"";"25 Churchill Ave";"Palo Alto";"CA";"94306";"USA";"www.globalvolunteers.org/";"";"";"";"375 East Little Canada Road, St. Paul, MN 55117-1628"
1001;2;"YMCA - Sports";"";"3412 Ross road";"Palo Alto";"CA";"94303";"USA";"ymcasc.org/paloalto";"";"";"";""
1002;2;"East Palo Alto  Tutor and Tennis - East Palo Alto";"EPATT";"Department of Athletics";"East Palo Alto";"CA";"94303";"USA";"www.epatt.org";"";"";"";""
1004;2;"Stanford Soccer Club";"";"310 Colorado Ave";"Palo Alto";"CA";"94306";"USA";"www.stanfordsoccerclub.org";"";"";"";"Room A2, Cubberley Community Center, 4000 Middlefield Road, Palo Alto, CA 94306"
1005;2;"AYSO Soccer";"";"685 Wellsbury way";"Palo Alto";"CA";"94306";"USA";"www.ayso26.org/ ";"";"";"";""
1006;2;"Palo Alto Little League";"";"P.O. Box 785";"Palo Alto";"CA";"94302";"USA";"www.pabaseball.org/";"";"";"";""
1007;2;"Winter Lodge at Palo Alto";"";"3009 Middlefield Road";"Palo Alto";"CA";"94306";"USA";"www.winterlodge.com";"650-493-4566";"";"";""
1008;2;"Galileo Learning ";"";"3270 Lakeshore Avenue";"Oakland";"CA";"94610";"USA";"www.galileo-learning.com/";"510-595-729";"";"";""
1009;3;"VIA Services";"";"13851 Stevens Canyon Road";"Cupertino";"CA";"94014";"USA";"www.viaservices.org";"";"";"";""
1011;2;"Palo Alto City Hoops";"";"398 Irving Avenue";"San Jose";"CA";"95128";"USA";"www.city-hoops.com";"";"";"";""
1012;2;"Overland Summers";"";"";"Williamstown";"MA";"01267";"USA";"www.overlandsummers.org";"";"";"";""
1013;2;"Grace Christian Academy";"";"67 Dong Sing St, Nan Kang District";"Taipei";"";"115";"Taiwan";"";"";"";"";""
1014;2;"Deer Hill Expeditions";"";"PO Box 180";"Mancos";"CO";"81328";"USA";"www.deerhillexpeditions.com";"";"";"";""
2001;3;"Lytton Gardens Senior Communities";"";"437 Webster Street";"Palo Alto";"CA";"94301";"USA";"www.lyttongardens.org";"";"";"";""
2002;3;"Jewish Community Center - Senior";"";"4000 Middlefield";"Palo Alto";"CA";"94303";"USA";"www.paloaltojcc.org";"";"";"";""
2003;3;"Peninsula Jewish Teen Community Foundadtion";"";"5150 El Camino Real suit D11";"Los Altos";"CA";"94022";"USA";"www.sfjcf.org/";"";"";"";""
2004;3;"VA Palo Alto";"";"3801 Miranda Ave";"Palo Alto";"CA";"94304";"USA";"www.palo-alto.med.va.gov/";"";"";"";""
2005;3;"Special Olympics - Senior Games";"";"1445 Koll circle, Suite 104 ";"San Jose";"CA";"95112";"USA";"www.specialolympics.org/leaders.aspx";"";"";"";""
3001;4;"Marine Science Institute";"";"500 Discovery Parkway";"Redwood City";"CA";"94063";"USA";"www.sfbaymsi.org";"";"";"";""
3002;3;"Westwind Riding Institute";"";"27210 Altamont Rod";"Los Altos Hills";"CA";"94022";"USA";"";"";"";"";""
3003;4;"Palo Alto Animal Service";"";"3281 E. Bayshore Rd";"Palo Alto";"CA";"94303";"USA";"www.cityofpaloalto.org";"";"";"";""
3004;4;"Nine Lives Foundation";"";"3016 Rolison Road";"Redwood City";"CA";"94063";"USA";"www.ninelivesfoundation.org/";"";"";"";""
3005;4;"San Francisco Zoo";"";"1 Zoo Road";"San Francisco";"CA";"94132";"USA";"www.sfzoo.org";"";"";"";""
3006;4;"Palo Alto Junior Museum and Zoo";"";"1451 Middlefield Road";"Palo Alto";"CA";"94301";"USA";"www.cityofpaloalto.org";"";"";"";""
6001;4;"Canopy";"";"3921 East Bayshore Road";"Palo Alto";"CA";"94303";"USA";"www.canopy.org";"";"";"";""
6002;4;"San Mateo County";"Department of Parks";"455 County Center, 4th Floor";"Redwood City";"CA";"94063";"USA";"www.co.sanmateo.ca.us/portal/site/parks/";"650-599-1721";"";"";""
6003;4;"Tahoe Meadows";"";"";"South Lake Tahoe";"CA";"";"USA";"www.tahoemeadows.org/";"";"";"";""
6004;4;"Rebuilding Together Penninsula";"";"841 Kaynyne Street";"Redwood City";"CA";"94063-3000";"USA";"www.rebuildingtogetherpeninsula.org";"";"";"";""
6005;4;"Regenerative Science Institute";"";"1230 Bordeaux Ave";"Sunnyvale";"CA";"94089";"USA";"www.regensci.org/";"";"";"";""
6006;6;"Esperanza";"";"717 3rd Avenue";"Chula Vista";"CA";"91910";"USA";"";"";"";"";""
6007;4;"Jasper Ridge Biological Preserve";"Stanford University";"Gilbert 410";"Stanford";"CA";"94301";"USA";"jrbp.stanford.edu/";"";"";"";""
6008;4;"Save the Bay";"";"350 Frank A. Ogawa Plaza";"South Oakland";"CA";"94609";"USA";"www.savesfbay.org";"";"";"";""
6009;4;"Acterra";"";"3921 E. Bayshore";"Palo Alto";"CA";"94303";"USA";"www.acterra.org/";"";"";"";""
6010;6;"Habitat for Humanity";"";"690 Broadway Street";"Redwood City";"CA";"94063";"USA";"www.habitat.org/";"";"";"";""
6011;6;"Rustic Pathways";"";"P.O. Box 1150";"Willoughby";"OH";"44096";"USA";"www.rusticpathways.com/";"";"";"";""
6012;6;"Volunteer Maintenance Club";"";"128 Academia Rd. Sec. 2, NanKang";" Taipei";"";"";"Taiwan";"";"";"";"";""
6013;4;"EHC Lifebuilders";"EHC Lifebuilders";"507 Valley Way";"Milpitas";"CA";"95035";"";"";"408-963-2322";"Carson Kimberley";"";""
7001;8;"American Red Cross";"Palo Alto Chapter";"400 Mitchell Lane";"Palo Alto";"CA";"94301";"USA";"www.siliconvalley-redcross.org";"877-727-6771";"";"";"Sillicon Valley Chapter, 2731 North 1st Street, San Jose, CA 95134"
7003;8;"American Disaster Relief";"";"50 Embarcadero Road";"Palo Alto";"CA";"94301";"USA";"www.facebook.com/americandisasterrelief";"";"";"";""
7005;3;"Abilities United";"";"525 East Charleston";"Palo Alto";"CA";"94306";"USA";"www.abilitiesunited.org";"650-320-8237";"";"";"3864 Middlefield Road, Palo Alto, CA 94303-4716"
7006;7;"Lucile Packard Children's Hospital";"";"770 welch road, suite 150";"Palo Alto";"CA";"94304";"USA";"www.lpch.org/";"";"";"";""
7008;7;"Stanford Unv. Medical Center Auxillary";"";"300 Pasteur Drive";"Palo Alto";"CA";"94304";"USA";"www.stanfordhospital.org /Volunteering";"";"";"";""
7009;7;"El Camino Hospital";"";"2500 Grant Road";"Mountain View";"CA";"94304";"USA";"www.elcaminohospital.org/";"650-940-7000";"";"";""
7010;7;"American Cancer Society";"";"243 Main Street";"Los Altos";"CA";"94022";"USA";"www.cancer.org/";"";"";"";""
7011;7;"Laguna Honda Hospital";"";"375 Laguna Honda Blvd";"San Francisco";"CA";"94116";"USA";"www.lagunahonda.org/";"";"";"";""
7012;8;"International Health Care Volunteers";"";"P.O. Box 8231";"Trenton";"NJ";"08650";"USA";"www.ihcv.org/";"";"";"";""
7013;1;"Partner In Education - PIE";"";"25 Churchill Ave.";"Palo Alto";"CA";"94306";"USA";"www.papie.org/index.html";"650-329-3990";"";"";""
7014;1;"Escondido Elementary School";"";"890 Escondido Road";"Stanford";"CA";"94305";"USA";"www.escondidoschool.org/";"650-856-1337";"";"";""
7015;1;"Palo Alto Library";"";"1213 Newell Road";"Palo Alto";"CA";"94303";"USA";"www.cityofpaloalto.org/depts/lib/default.asp";"650-329-2436";"";"";""
7016;10;"PALY Key-Club";"PALY";"50 Embarcadero Road";"Palo Alto";"CA";"94301";"USA";"www.paly.net";"";"";"";""
7017;1;"Dance Visions";"Dance Visions";"4000 Middlefield Road, Cubberly center L-3";"Palo Alto";"CA";"94306";"USA";"www.danceaction.org/home.html";"650-858-2005";"";"";""
7018;1;"Girl Scouts of America";"Palo Alto chapter";"1120 Hopkins Avenue";"Palo Alto";"CA";"94301";"USA";"";"650-853-9692";"Suzanne Bell";"";""
7020;1;"Grace Luthern Church of Palo Alto";"";"3149 Waverly Street";"Palo Alto";"CA";"94301";"USA";"";"650-494-1212";"Melissa Johnson";"";""
7021;1;"Friends of Palo Alto Library";"";"4000 Middlefield Road";"Palo Alto";"CA";"94306";"USA";"";"650-213-8755";"Jerry Stone";"";""
7022;1;"Valley Christian Schools";"San Jose";"100 Skyway Drive";"San Jose";"CA";"95111";"USA";"";"408-559-4400";"Antette Lare";"";""
7023;9;"Second Harvest Food Bank";"";"151 Bing Street";"Santa Clara";"CA";"94070";"USA";"";"650-610-0800";"Rita Guntern";"";""
7024;1;"Camp Galileo";"";"3279 Lakeshore Avenue";"Oakland";"CA";"94610";"USA";"";"510-595-7293";"Anne Hefflinger";"";""
7025;9;"My NewRed Shoes";"Menlo Park";"P.O. Box 1264";"Menlo Park";"CA";"94026";"USA";"";"415-990-0146";"Meridith Ackley";"";""
7026;8;" South Peninsula Jewish Community Teen Center";"";"6150 El Camino Real, Suite D-11";"Los Altos";"CA";"940222";"USA";"";"";"";"";""
7027;2;"Silicon Valley Bicycle Coalition";"Bay Area";"P.O. Box 8447";"San Jose";"CA";"95155";"USA";"";"408-287-7259";"David Fork";"";""
7028;1;"Korean Emmanuel Presbyterian Church";"";"4435 Fortran Drive";"San Jose";"CA";"95134";"USA";"www.sjkepc.org";"408-263-5100";"Derek H Song";"";""
7029;1;"PALY Music Booster";"PALY";"50 Embarcadero Road";"Palo Alto";"CA";"94301";"USA";"www.paly.net";"650-329-3893";"Jeff Willner";"";""
7030;2;"PALY Softball Booster";"PALY";"50 Embarcadero Road";"Palo Alto";"CA";"94301";"USA";"www.paly.net";"";"";"";""
7031;7;"Stanford Blood Center";"";"780 Welch Road, Suite 100";"Palo Alto";"CA";"94304";"USA";"";"650-725-4440";"Michele Scroggins";"";""
7032;6;"Casaverde Ministries";"";"5 Avenue, 6-32 Zona 8";"Villa Nueva";"";"";"Guatemala";"";"";"Christopher Schoff";"casaverde@cotrmellbounne.com";""
7033;2;"Sail Caribbean";"";"256 Main Street, #1203";"Northport";"NY";"11768";"USA";"www.sailcaribbean.com";"863-299-8967";"Eileen Rothschild";"Eileen_Rothschild@yahoo.com";""
7034;4;"Alliance for Climate Protection";"";"860 El Camino Real, Suite 400";"Menlo Park";"CA";"94025";"USA";"";"650-543-7341";"Melissa Foley";"";""
7035;9;"Home of Hope Inc.";"";"190 Tobin Clark Drive";"Hillsborough";"CA";"94010";"USA";"";"650-520-3204";"Nilima Sabhasmal";"";""
7036;1;"PALY Sculpture Department";"PALY";"50 Embarcadero Road";"Palo Alto";"CA";"94301";"USA";"www.paly.net";"";"David Camnon";"";""
7037;3;"Ice Oasis";"Special Skater's Program";"3140 Bay Road";"Redwood City";"CA";"94063";"USA";"www.iceoasis.com";"650-364-8090";"Susan Blaisdell";"";""
7038;1;"Sino Language Gateway";"";"P.O. Box 23634 ";"San Jose";"CA ";"95153 ";"USA";"www.sinolanguage.com";"408-360-9958";"";"";""
7039;1;"Peach Foundation";"";"1098 Marlin Ave. ";"Foster City";"CA";"94404";"USA";"";"650-688-0415";"Trish Bubenik";"";""
7041;1;"Presbyterian Church";"Children's Ministry";"950 Santa Cruz Ave. ";"Menlo Park";"CA";"94025";"USA";"";"650-323-8647";"Chris Dorst";"";""
7042;8;"New Global Citizens";"";"2610 Mission Street, Suite 502";"San Francisco";"CA";"94110";"USA";"";"510-59307549";"Becky Bycer";"";""
7043;1;"Palo Alto Chamber Orchestra";"";"4000 Middlefield Rd. #M1";"Palo Alto";"CA";"94306";"USA";"";"650-856-3848";"Linh Tran";"";""
7044;4;"San Mateo County Parks";"";"455 County Center, 4th Floor";"Redwood City";"CA";"94063";"USA";"www.co.sanmateo.ca.us/portal/site/parks/";"650-363-4020";"David Holland";"dholland@co.sanmateo.ca.us";""
7045;1;"Palo Alto Children's Theatre";"";"1305 Middlefield Road";"Palo Alto";"CA";"94301";"USA";"";"650-463-4930";"Emika Abe";"";""
7046;1;"PALY Historical Reenactmets";"PALY";"50 Embarcadero Road";"Palo Alto";"CA";"94301";"USA";"www.paly.net";"650-329-3836";"Mike McGovern";"";""
7047;9;"Diocese of San Jose Urban Plunge";"Santa Clara county";"3290 Middlefield Road";"Palo Alto";"CA";"94306";"USA";"";"650-494-2496";"Rob Manfrey";"";""
7048;9;"Ecumenical Hunger Program";"";"2411 Pulgas Ave.";"East Palo Alto";"CA";"94303";"USA";"";"650-323-7781";"Donald Hcnter";"";""
7049;1;"Pacific Coast Kids";"";"1525 Middlefiled Road";"Palo Atlo";"CA";"94301";"USA";"";"650-321-5697";"Alan Clark";"";""
7050;7;"Family Practice Medical Associates";"";"455 O'Conner Drive , Suite 200";"San Jose";"CA";"95128";"USA";"";"408-995-5453";"Michael Henehan";"";""
7051;9;"Inn Vision Urban Ministry of Palo Alto";"";"33 Encina Avenue";"Palo Alto";"CA";"94301";"USA";"";"";"";"";""
7052;1;"Midpeninsula Media Center";"";"900 San Antonio Road";"Palo Alto";"CA";"94303";"USA";"";"650-494-8686";"Danielle Fairbarin";"";""
7053;1;"Silver Ting Thing";"";"544 Moon Clinton Road";"Moon Township";"PA";"15108";"USA";"www.Silverringthing.com
";"";"";"";""
7054;4;"city of Los Altos Recreation Department";"";"97 Hillview";"Los Altos";"CA";"94022";"USA";"";"650-947-2790";"Hung S. Nguyen";"";""
7055;1;"The Friendship Circle";"";"3900 Fsbian Way";"Palo Alto";"CA";"94303";"USA";"";"650-858-6990";"Chanie Robbinds";"";""
7056;1;"Kenndyn Camps";"Sequel";"8205 Glen Haver Road";"Sequel";"CA";"";"";"";"831-479-6714";"Chris Woodrow";"";""
7057;1;"PALY-Associated Student Body";"PALY";"50 Embarcadero Road";"Palo Alto";"CA";"94301";"USA";"www.paly.net";"";"";"";""
7058;1;"PALY CCC - College and Career Center";"PALY";"50 Embarcadero Road";"Palo Alto";"CA";"94301";"USA";"www.paly.net";"";"";"";""
7059;1;"PALY ARC";"PALY";"50 Embarcadero Road";"Palo Alto";"CA";"94301";"USA";"www.paly.net";"";"";"";""
7060;1;"PALY- YCS";"PALY";"50 Embarcadero Road";"Palo Alto";"CA";"94301";"USA";"www.paly.net";"";"";"";""
7061;1;"Art at PALY";"PALY";"50 Embarcadero Road";"Palo Alto";"CA";"94301";"USA";"www.paly.net";"";"";"";""
7062;9;"Urban Ministry of Palo Alto";"";"P.O. Box 702";"Palo Alto";"CA";"94302";"USA";"www.umpa.org";"650-853-8697";"Brooke Scharnke";"";""
7063;1;"East Palo Alto Phoenix Academy";"";"1848C Bay Road";"East Palo Alto";"CA";"94303";"USA";"www.epapa.org/";"650)-325-1460 ";"";"";""
7064;1;"PALY Debate Club";"PALY";"50 Embarcadero Road";"Palo Alto";"CA";"94301";"USA";"www.paly.net";"";"";"";""
7065;5;"Children International Summer Village  - CSIV";"CSIV - USA";"1375 Kemper Meadow Drive, Suite 9-B";"Cincinnati";"OH";"45240";"USA";"www.cisvusa.org/";"888-CISV-USA";"";"";""
7066;2;"Foothill Tennis and Swimming Club";"";"3351 Miranda Ave";"Palo Alto";"CA";"94304";"USA";"www.foothills-club.org/club/scripts/view/view_directions.asp?GRP=593&NS=PUBLIC&APP=60";"650-493-8540";"";"";""
7067;9;"My New Red Shoes";"Burlingame";"111 Anza Blvd., Suite 110";"Burlingame";"CA";"94010";"USA";"www.mynewredshoes.org/";"650-241-3911";"";"";""
7068;9;"Society of St. Vincent de Paul";"";"58 Progress Parkway";"St. Louis";"MO";"63043";"USA";"www.svdpusa.org/";"314-576-3993";"";"usacouncil@svdpusa.org";""
7069;1;"Palo Alto World Music Day";"";"";"Palo Alto";"CA";"";"USA";"www.pamusicday.org";"";"";"info@pamusicday.org";""
7070;7;"Mental Research Institute - MRI";"";"555 Middlefield Rd";"Palo Alto";"CA";"94301";"USA";"www.mri.org";"650-321-3055";"";"mri@mri.org";""
7071;1;"Jordan Middle School";"";"750 North California Avenue";"Palo Alto";"CA";"94303";"USA";"www.jordan.pausd.org/";"650-494-8120";"";"";""
7072;2;"Eichler Swim and Tennis Club";"";"3539 Louis Road";"Palo Alto";"CA";"94303";"USA";"eichlerclub.com";"650-494-6521";"";"";""
7073;1;"Santa Clara Muslim Community Center";"";"";"";"";"";"";"www.mcabayarea.org/";"";"";"";""
7074;4;"Environmental Protection Society";"";"";"";"";"";"";"";"";"";"";""
7075;4;"Volunteers for Ecological Environment";"";"";"";"";"";"";"";"";"";"";""
7076;7;"Taiwan Foundation for Blind";"";"";"";"";"";"";"";"";"";"";""
7077;1;"Junior Counselor Camp - city of Palo Alto";"LUcie Stern Community Center";"";"Palo Alto";"";"";"";"";"";"";"";""
7078;1;"PALY math tutor";"";"50 Embarcadero Road";"Palo Alto";"CA";"94301";"USA";"";"";"";"";""
7079;1;"wisdom Camp";"";"";"";"";"";"";"";"";"";"";""
7080;5;"Office of California State -San Jose Simitian";"";"";"";"";"";"";"";"";"";"";""
7081;1;"Camp Chretien Francais";"";"";"";"";"";"";"";"";"";"";""
7082;4;"Acentra";"";"";"";"";"";"";"";"";"";"";""
7083;3;"Senior Games";"";"";"";"";"";"";"";"";"";"";""
7084;3;"Sunrise Senior Living";"";"";"";"";"";"";"";"";"";"";""
7085;7;"Muscular Dystrophy Association";"";"";"";"";"";"";"";"";"";"";""
7086;1;"PALY InFocus Television Network";"";"";"";"";"";"";"";"";"";"";""
7087;2;"PALY-Sports";"";"";"";"";"";"";"";"";"";"";""
7088;1;"PALY Parking";"";"";"";"";"";"";"";"";"";"";""
7089;1;"Gunn High School";"";"";"";"";"";"";"";"";"";"";""
7090;1;"JLS Middle School";"";"";"";"";"";"";"";"";"";"";""
7091;7;"Stanford Bipolar Clinic";"";"";"";"";"";"";"";"";"";"";""
7092;1;"ASACA";"";"";"";"";"";"";"";"http://www.asaca-usa.org/";"";"";""
7093;1;"Stanford University";"";"";"";"";"";"";"";"";"";"";""
7094;1;"Boys and Girls Club of the Peninsula";"";"";"";"";"";"";"";"";"";"";""
7095;1;"RAFT";"";"1355 Ridder Park Drive";"San Jose";"CA";"95131";"USA";"www.raft.net";"408-451-1420";"";"";""
7096;1;"Palo Alto Buddhist Temple";"";"2751 Louis Road";"Palo Alto";"CA";"94303";"USA";"www.pabt.org";"650-856-9130";"";"";""
7097;1;"PALY - Palo Alto High School";"";"50 Embarcadero Road";"Palo Alto";"CA";"94301";"USA";"www.paly.net";"650-329-3701";"";"";""
7098;1;"City of Palo Alto";"";"250 Hamilton Ave";"Palo Alto";"CA";"94301";"USA";"www.cityofpaloalto.org";"650-329-2100";"";"";""
7099;1;"Invision";"";"";"";"";"";"";"";"";"";"";""
7100;1;"Duveneck Elementary School";"";"";"";"";"";"";"";"";"";"";""
7101;7;"American Heart Association";"";"";"";"";"";"";"";"";"";"";""
7102;2;"PALY PE";"";"";"";"";"";"";"";"";"";"";""
7103;3;"Junior Blind of America";"";"";"";"";"";"";"";"";"";"";""
7104;1;"chinese community Center-SF";"San Francisco";"1199 Mason Street";"San Francisco";"CA";"94108";"USA";"";"415-292-2017";"";"";""
7105;7;"Menlo Park VA";"";"";"";"";"";"";"";"";"";"";""
7106;4;"Springdown Equestrian Center";"Portola Valley";"725 Portola Road";"Portola Valley";"CA";"94028";"USA";"www.springdown.com";"650-851-1114";"";"";""
7107;7;"Crane Club";"";"";"";"";"";"";"";"";"";"";""
7108;10;"United Nation Association";"";"";"";"";"";"";"";"";"";"";""
7109;1;"American Language/Culture School";"";"";"";"";"";"";"";"";"";"";""
7110;2;"Skate school @Belmont iceland";"";"815 Old County Eoad";"Belmont";"CA";"94002";"";"";"650-592-0533";"Alyssa Lewis";"";""
7111;7;"American Diabetes Association";"";"";"";"";"";"";"";"";"";"";""
7112;7;"Chinese Hospital at San Francisco";"";"";"";"";"";"";"";"";"";"";""
7113;1;"Silicon Valley Alliance Church-Life Orchestra";"";"";"";"";"";"";"";"";"";"";""
7114;2;"children's discovery museum";"";"";"";"";"";"";"";"";"";"";""
7115;4;"Deel Hill Expeditions";"";"";"";"";"";"";"";"";"";"";""
7116;1;"San Jose State University";"";"";"";"";"";"";"";"";"";"";""
7117;1;"Los Altos Library";"";"";"";"";"";"";"";"";"";"";""
7118;2;"Water Polo Junior Olympics";"";"";"";"";"";"";"";"";"";"";""
7119;2;"Best Buddies Challenges at Hearst Castle";"";"";"";"";"";"";"";"";"";"";""
7120;1;"Castilleja School";"";"";"";"";"";"";"";"";"";"";""
7121;5;"Sillicon Valley Community Foundation";"";"";"";"";"";"";"";"";"";"";""
7122;1;"Boy Scouts of America";"";"1150 Chess Dr";"Foster City";"CA";"94404";"";"www.scouting.org/";"650-341-5633";"";"";""
7123;1;"Chinese Church in Christ Mountain View";"CCiC MV";"920 Sierra Vista Avenue";"Mountain View";"CA";"94043";"USA";"www.ccic.org/mv/about_ccic-mv.htm";"650-968-2900";"";"";""
7124;1;"Menlo Park Library";"";"";"";"";"";"";"";"";"";"";""
7125;3;"Recording for the Blind and Dyslexic";"RFB&D";"";"";"";"";"";"";"";"";"";""
7126;1;"PAUSD";"";"";"";"";"";"";"";"http://www/rfbd.org";"";"volunteer@rfbd.org";""
7127;1;"EF Education Home Stay Program";"";"";"";"";"";"";"";"";"";"";""
7128;1;"people to people";"";"";"";"";"";"";"";"";"";"";""
7129;1;"San Jose Tech Museum";"";"";"";"";"";"";"";"";"";"";""
7130;2;"peninsula youth theatre";"";"";"";"";"";"";"";"";"";"";""
7131;1;"Copper Creek Camp";"";"887 Williams Valley Rd";"greensville";"ca";"95947";"usa";"www.coppercreek.com";"530-284-7617";"";"";""
7132;1;"Fly Young";"";"1177 Laurelwood Rd.";"Santa Clara";"CA";"";"USA";"www.fly-young.org";"";"James Wang";"rolccjames@yahoo.com";""
7133;3;"Summer's Excellent Adventures";"City of Palo Alto";"";"palo alto";"ca";"94301";"usa";"www.cityofpaloalto.org";"650-463-4953";"Minka van der Zwaag";"";""
7134;2;"Stanfrod water polo club";"";"";"palo alto";"CA";"";"USA";"www.stanfordwaterpoloclub.com";"";"";"";""
7135;9;"Abundant Life Assembly of God";"";"";"";"";"";"";"";"";"";"";""
7136;1;"spanish immersion program association at Palo Alto";"SIPAPA";"";"palo alto";"ca";"";"";"www.SIPAPA.org";"";"";"SIPAPA.info@gmail.com ";""
7137;1;"Student Conservation Association";"thesca";"1230 Preservation Parkway";"Oakland";"ca";"94612";"usa";"www.thesca.org";"510-832-1966";"Jay Watson";"";""
7138;9;"SEVA Foundation";"SEVA";"1786 Fifth Street";"Berkerley";"CA";"94710";"USA";"www.seva.org";"510-845-7382";"";"";""
7139;1;"Camp Winnarainbow";"";"";"Berkerley";"CA";"";"USA";"www.campwinnarainbow.org";"";"";"arainbow@mcn.org";""
7140;7;"Children's Helath Council";"";"650 Clark Way";"Palo Alto";"CA";"94304";"USA";"www.chonline.org";"650-326-5530";"";"";""
7141;4;"Camp Bizsmart";"";"";"Palo Alto";"CA";"";"USA";"www.campbizsmart.org";"800-475-0869";"";"";""
7142;1;"San Francisco Conservertory of Music";"SFCM";"50 Oak Street";"San Francisco";"CA";"94102";"USA";"www.sfcm.edu";"415-864-7326";"";"";""
7143;1;"The Perlman Music Program";"";"";"";"CA";"";"";"www.perlmanmusicprogram.org/";"";"";"";""
7144;1;"The Diller Teen Fellows";"";"121 Steuart Street";"San Francisco";"CA";"94105";"USA";"htto://www.sfjcf.org";"415-777-0411";"";"";""
7145;1;"Trust in Education";"";"P.O. Box 936";"Lafayette";"CA";"94549";"USA";"www.trustineducation.org";"925-299-2010";"";"";""
7146;4;"Hidden Villa";"";"26870 Moody Road";"Los Altos";"CA";"94022";"USA";"www.hiddenvilla.org";"650-949-8650";"";"info@hiddenvilla.org";""
7147;9;"Bread of life";"";"1703 Gray Street";"Houston";"TX";"77002";"";"www.breadoflifeinc.org";"713-650-0595";"";"";""
7148;9;"World Vision International";"";"800 West Chestnut Avenue";"Monrovia";"CA";"91016";"USA";"www.wvi.org";"";"";"";""
7149;7;"Face Aids";"";"P.O. Box 46";"Palo Alto";"CA";"94302";"USA";"www.faceaids.org";"";"";"";""
7150;2;"Julie Foudy Sports Leadership Academy";"";"1801 S. Prairie Avenue";"Chicago";"IL";"60616";"USA";"www.juliefoudyleadership.com";"949-648-2050";"";"";""
7151;1;"North American Federation of Temple Youth-NFTY";"";"633 Third Avenue, 7th Floor";"New York";"NY";"10017";"USA";"www.nfty.org";"212-650-4070";"";"";""
7152;4;"Earthwatch Institute";"";"114 Western Ave.";"Boston";"MA";"02134";"USA";"www.earthwatch.org";"800-776-0188";"";"";""
7153;1;"""I have a dream"" Foundation";"";"330 Seventh Avenue, 20th Floor";"New York";"NY";"10001";"USA";"www.Ihaveadreamfoundation.org";"212-293-5480";"";"";""
7154;4;"American Rivers";"";"1101 14th Street NW, Suite 1400";"Washington";"DC";"20005";"USA";"www.americanrivers.org";"202-347-7550";"";"";""
7155;4;"Tuolumne River Trust";"";"111 New Montgomery Street, Suite 205";"San Francisco";"CA";"94105";"USA";"www.tuolumne.org";"415-882-7252";"";"";""
7156;2;"Castro Elementary";"";"220 View Street";"Mountain View";"CA";"94041";"USA";"";"650-526-3590";"";"";""
7157;1;"A Holiday Affaire";"";"";"";"";"";"";"";"310-545-6239";"";"";""
7158;7;"The Leukemia & Lymphoma Society";"";"";"";"";"";"";"www.leukemia-lymphoma.org";"800-955-4572";"";"";""
7159;1;"Cinequest";"";"P.O. Box 720040";"San Jose";"CA";"95172";"USA";"www.cinequest.org";"408-295-3378";"";"contact@cinequest.org";""
7160;1;"South Peninsula Hebrew Day School-SPHDS";"";"1030 Astoria Drive";"Sunnyvale";"CA";"94087";"USA";"www.sphds.org";"408-738-3060";"";"";""
7161;1;"Center for Youth Evangelism";"";"4145 E. Campus Circle Drive";"Berrien Spring";"MI";"49104";"USA";"www.adventistyouth.org";"800-968-8428";"";"";""
7162;4;"NASA Ames";"";"";"";"CA";"";"USA";"www.nasa.org";"";"";"";""
7163;1;"Aeron Flute Inc.";"";"557 Leland Avenue";"San Jose";"CA";"95128";"USA";"www.aeronflutes.com";"408-394-9264";"";"contact@aeronflutes.com";""
7164;1;"Beechwood Elementary School";"";"780 Beechwood Avenue";"Fullerton";"CA";"93835";"USA";"www.fsd.k12.ca.us";"714-447-2850";"";"";""
7165;1;"St. vincent de Paul";"";"165 Stillman Street";"San Francisco";"CA";"94107";"USA";"www.svdp-sf.org/";"415-977-1270";"";"";""
7166;1;"Make a Wish";"";"4742 N. 24th Street, Suite 400";"Phoenix";"AZ";"85016";"USA";"wish.org";"602-279-9474";"";"";""
7167;4;"Pound Puppy Rescue";"";"";"";"";"";"USA";"htt://www.poundpuppyrescue.org";"";"";"";""
7168;6;"Common Ground Releif";"";"1800 Deslonde Street";"New Orleans";"Loisiana";"70117";"USA";"www.commongroundrelief.org";"504-942-3737";"";"";""
7169;6;"Beacon of Hope";"";"145 Robert E. Lee Blvd, suite 200";"New Orleans";"Louisiana";"70124";"USA";"www.lakewoodbeacon.org";"504-309-5120";"";"";""
7170;1;"Hope Lab";"";"";"";"";"";"";"hopelab.org";"";"";"";""
7171;5;"Registrar of Voters-Santa Clara County";"";"1555 Berger Dr. #A";"San Jose";"CA";"95112";"USA";"www.sccvote.org";"408-299-8683";"";"";""
7172;6;"Palo Alto Housing Corporation";"";"725 Alma Street";"Palo Alto";"CA";"94301";"USA";"www.paloaltohousingcorp.org";"650-321-9709";"";"";""
7173;3;"Our Lady of Fatima Villa";"";"20388 Saratoga-Los Gatos Road";"Saratoga";"CA";"95070";"USA";"fatimavilla.org";"408-741-4930";"";"";""
7174;3;"Villa Siena Retirement Community";"";"1855 Miramonte Ave.";"Mountain View";"CA";"94040";"USA";"";"650-961-6484";"";"";""
7175;1;"St Albert's Church";"";"1022 Holly Street";"Alameda";"CA";"94502";"USA";"www.stalhsar.com/";"510-373-5220";"";"";""
7176;1;"Bank of West Tournament";"";"685 Market Street";"San Fransisco";"CA";"94105";"USA";"";"866-982--8497";"";"";""
7177;1;"Big Brothers Big Sisters";"";"1618 2nd Street";"San Rafael";"CA";"94901";"USA";"www.bbs.org";"415-453-3800";"";"";""
7178;1;"Ronald Mcdonald";"";"1640 Scott Street";"San Fransisco";"CA";"94115";"USA";"www.rmhcbayarea.com/";"415-673-0891";"";"";""
7179;1;"Art in Action";"";"3925 Bohannon Drive";"Menlo Park";"CA";"94025";"USA";"www.artinaction.org/";"650-566-8339";"";"info@artinaction.org";""
7180;5;"Washington State Democrats";"";"";"";"";"";"";"www.wa-democrats.org/home";"";"";"";""
7181;1;"Huabei Oilfield Donfeng Elementary School";"";"";"";"";"";"China";"";"";"";"";""
7182;1;"Adolescent Counseling Service";"";"4000 Middlefield Road, Suite FH";"Palo Alto";"ca";"94303";"USA";"www.acs-teens.org";"650-424-0852";"";"info@acs-teens.org";""
7183;4;"canine companions independent";"CCI";"P.O. Box 446";"Santa Rosa";"CA";"95402";"USA";"cci.org";"866-224-3647";"";"";""
7184;8;"Alexandra Chiles Foundation";"";"P.O. Box 823";"Menlo Park";"CA";"94026";"USA";"www.alexandrachilesfoundation.org/";"650-948-4793";"";"abitachiles@gmail.com";""
7185;8;"Action in Africa";"";"1634 Eye Street";"Washington";"DC";"20006";"USA";"www.africaaction.org/";"202-546-7961";"";"";""
7186;2;"First Lego League";"FLL";"200 Bedfors Street";"Manchester";"NH";"03101";"USA";"www.firstlegoleague.org";"603-666-3906";"";"";""
7187;1;"Costano Elementary School";"Ravenswood school district";"2695 Fordham Street";"East Palo Alto";"CA";"94303";"USA";"www.ravenswood.k12.ca.us";"650-329-2830";"";"";""
7188;5;"office of senator simitian";"160 Town and Country Village";"office od Senator Simitian";"Palo Alto";"CA";"94301";"USA";"www.senatorsimitian.com";"916-651-4011";"";"";""
7189;2;"Stanford Atheletics";"";"";"";"";"";"";"www.gostanfrod.com";"";"";"";""
7190;1;"Sojourner Truth Child Development Center";"";"3990 Ventura Ct.";"Palo Alto";"CA";"94306";"USA";"";"650-493-5990";"";"";""
7191;8;"Esperanza Inc";"";"3104 W. 25th Street, 4th floor";"Cleveland";"OH";"44109";"USA";"www.esperanzainc.org";"216-651-7178";"";"";""
7192;1;"All Saints Epixcopla Church";"";"1350 Waller Street, Haight Ashbury District";"San Francisco";"CA";"94117";"USA";"www.allsaintssanfran.org";"415-621-1862";"";"";""
7193;2;"University Club of Palo Alto";"";"3277 Miranda Avenue";"Palo Alto";"CA";"94304";"USA";"www.ucpaloalto.com";"650-493-3972";"";"";""
7194;1;"MINGA";"";"11 /arlington Street";"Boston";"CA";"02116";"USA";"www.mingagroup.org";"617-895-0245";"";"";""
7195;2;"Jefunira Camp";"";"221 Lassen Avenue";"Mountain View";"CA";"94043";"USA";"www.jefuniracamp.com";"650-291-2888";"";"";""
7196;7;"Susan G. Koman for the Cure";"";"";"San Francisco";"CA";"";"USA";"ww5.komen.org";"972-701-2168";"";"news@komen.org";""
7197;1;"southwestern university";"";"";"";"";"";"";"";"";"";"";""
7198;9;"Sacred Heart Community Service {Hand On Bay Area}";"Food/Shelter (Food Packaging)";"1381 S. First St. {135 Bluxome St. 2nd floor}";"San Jose {San Francisco}";"CA";"95110 {94107}";"USA";"";"415-541-9616";"Shuai Chen {Hand On Bay Area}";"";""
7201;2;"Oshman Family JCC";"Sports/Kids (J-Camp Administration)";"3921 Fabian Way";"Palo Alto";"CA";"94303";"USA";"";"650-223-8622";"Katie Chapin";"";""
7202;8;"Ramat HaShikma Community Center (Matnas)";"Humanitarian (Assistant Counselor)";"Shalem 32. Ramat Gan Israel";"";"";"";"Israel";"";"03-6311410";"Pini Goldberg";"";""
7203;1;"Palo Alto MediaCenter";"Education (Youth Advisory Council)";"900 San Antonio Rd.";"Palo Alto";"CA";"94303";"";"";"650-494-8686";"Rebecca Fisher";"";""
7204;2;"Magical Bridge Playground";"Sports/Kids (Events helper: Filming, blowing balloons, concert, etc...)";"416 Fulton St.";"Palo Alto";"CA";"94303";"";"";"650-380-1557";"Olenka Villarreal";"";""
7205;4;"Bold Earth Adventures";"Animal/Environment (clean beaches for wildlife safely)";"2308 Fossil Trace Drive";"Golden";"Colorado";"80401";"";"";"";"Abbott Wallis";"";""
7206;1;"Paly Debate Team";"Education (Teaching Debate & Speech to Middle Schoolers)";"Palo Alto High School (50 Embracadero Rd)";"Palo Alto";"CA";"94301";"";"";"650-307-2018";"Jenny Savage";"";""
7208;2;"Special Skaters";"Sports/Kids (Skating)";"3140 Bay Road";"Redwood City";"CA";"94063";"";"";"650-364-8090";"Susan Blaisdell";"";""
7209;7;"Lucile Packards Children Hospital";"Health Care/Safety (maternity service)";"725 Welch road";"Palo Alto";"CA";"94301";"";"";"650-497-8549";"Mary Ellen Cozzi";"";""
7210;7;"Lucile Packard Childrens Hospital";"Health Care/Safety (maternity service)";"725 Welch road";"Palo Alto";"CA";"94301";"";"";"";"";"";""
7211;2;"Peninsula Skate Club";"Sports/Kids (Spring Jubilie Running)";"1500 South Tenth St.";"San Jose";"CA";"95112";"";"";"650-274-0278";"Betsy Anderson";"";""
7212;10;"Key Club International";"GMulti events helper: planting, construction, food packaging,etc...";"Palo Alto High School (50 Embracadero Rd)";"Palo Alto";"CA";"94301";"";"";"317-875-8755";"Kevin Hu";"";""
7213;1;"Palo Alto Children's Library";"Education (Books Shelving & assist on library's works)";"1276 Harriet St. ";"Palo Alto";"CA";"94301";"";"";"650-329-2436";"";"";""
7214;10;"One Million Lights";"General/Comunity (fundraising)";"P.O. Box 444";"Palo Alto";"CA";"94302";"";"";"214-505-9877 or 650-387-3150";"Jaon Dovsey";"";""
7215;2;"City of Palo Alto Recreation";"Sports/Kids (Junior Camp counselor)";"Lucie Stern Center";"Palo Alto";"CA";"94301";"";"";"650-463-4910";"Khashayar CASH Alaee";"";""
7216;4;"Palo Alto Jr. Museum";"Animal/Environment (Camp Kinetic helper)";"1451 Middlefield Rd.";"Palo Alto";"CA";"94301";"";"";"650-329-2111";"Heather Bakal";"";""
7217;3;"National Senior Games";"Senior/Disabled (Assist in Badminton & Basketball)";"Stanford University";"Palo Alto";"CA";"";"";"";"650-323-9400";"Bonnie Luftig";"";""
7219;1;"Woodside Priory School& Sustainable Horizon";"Cleaned habitat & Created tortoise pond for Science program at local school";"302 Portola Rd.";"Portola Valley";"CA";"94028";"";"woodsidepriory.com";"650-851-6129";"Christine Muir";"cmuir@woodsidepriory.com";""
7220;9;"Troop 51- Boy Scouts & America";"Scouting for food pick up & drop off & Memorial Day Grave decoration";"1094 Forest Ave.";"Palo Alto";"CA";"94301";"";"";"650-323-5160";"Barb Schroder";"";""
7221;4;"Palo Alto High School TEAM";"Animal/Environment (Arastradero & Save the Bay planting)";"Palo Alto High School (50 Embracadero Rd)";"Palo Alto";"CA";"94301";"";"";"650-329-3710";"Ms. Hori";"";""
7222;1;"Apple Tree Library Foundation";"Books Shelving & assist on library's works, Haiti relief supplies correcting";"781 Newell Rd.";"Palo Alto";"CA";"94303";"";"";"408-219-0199";"Cathy Hsiao";"";""
7223;8;"Apple Tree Library in China";"Teaching & Conducting English reading program for people live in China";"";"Hefei, Chongging, Beikei, Jingzhon, Wuhan";"";"";"China";"";"";"";"";""
7224;7;"Palo Alto VA Health Care";"Health Care/Safety ";"3801 Miranda Ave.";"Palo Alto";"CA";"94304";"";"";"650-493-5000";"Jammu owens";"";""
7225;2;"Christian Music Theater (CMT)";"Sports/Kids (Summer Theatre Camp Counselor)";"3149 Waverley St.";"Palo Alto";"CA";"94306-2902";"";"";"650-494-1212";"Karen Salveson";"";""
7226;5;"Youth Forum";"Civic Engagement ( Youth Forum)";"";"";"";"";"";"";"";"Alicia Gregory";"alicia@youthcommunityservice.org";""
7227;1;"City of Palo Alto Downtown Library";"Education (Assist on library's works)";"270 Forest Ave.";"Palo Alto";"CA";"94301";"";"";"650-329-2438";"David Sigua";"";""
7228;8;"Tarbiat Modares International University, Natural Resources & Marine Science Department";"Humanitarianism (Training, Sample Collection, Data testing & analysis)";"Imam Khomeini St.  P.O. Box 64414-356 ";"Noor-Mazandaran";"";"";"Iran";"";"1198-122-625-3101";"Dr. Rabi Behrooz";"";""
7229;1;"Living Spanish Org.";"Education (Help children to cope & excel in Spanish Immersion Camp)";"572 College Ave.";"Palo Alto";"CA";"94306";"";"";"650-813-0970";"Tony Lee";"";""
7230;1;"Jordan Math Club";"Education (Math Club assisting)";"750 N. California Ave.";"Palo Alto";"CA";"94303";"";"";"650-494-8120";"Ellie Slack";"";""
7232;3;"Crestmont Conservatory of Music";"Senior/Disabled (Playing Music at Senior Nursing Home)";"2575 Flores St.";"";"CA";"";"";"";"650-574-4633";"Thomas Hansen";"";""
7233;4;"PALY TEAM";"Animal/Environment (Arastradero restoration & Save the Bay )";"Palo Alto High School (50 Embracadero Rd)";"Palo Alto";"CA";"94301";"";"";"650-329-3701";"Lynn Hori";"";""
7234;10;"Hand On Bay Area";"General/Community (Family Day at Cantor Center helper)";"135 Bluxome St. ";"San Francisco";"CA";"94107";"";"";"415-541-9616";"Lisa Mooring";"";""
7236;3;"String Studio";"Senior/Disabled (Musical entertainment for seniors)";"789 E. Meadow Dr.";"Palo Alto";"CA";"94303";"";"";"650-852-0712";"Anna Sokmor ";"";""
7237;10;"Youth Community Service (FLC)";"General/Community (Freshman Leadership Camp)";"3800 Middlefield Rd.";"Palo Alto";"CA";"94303";"";"";"650-617-8973";"Judy Dauberman";"";""
7239;2;"Palo Alto Partners In Education";"Sports/Kids (PiE Fair helper)";"25 Churchill Ave.";"Palo Alto";"CA";"94306";"";"";"650-329-3723";"Louise Valente";"";""
7240;5;"Burnett Academy Debate Tournament";"Civic Engagement (Judge community debate)";"850 N. 2nd St.";"San Jose";"CA";"";"";"";"";"Gay Brasher";"";""
7241;1;"PALY Math Camp";"Education (Math Curriculum Preparation & Camp Coaching)";"480 E. Meadow";"Palo Alto";"CA";"94306";"";"";"650-619-0212";"Scott Zhuge/ Suzanne Antink";"";""
7242;1;"PALY Speech & Debate Camp";"Education (Speech & Debate Camp)";"Palo Alto High School (50 Embracadero Rd)";"Palo Alto";"CA";"94301";"";"";"650-833-9753";"Jennie Savage";"";""
7243;2;"Shoreline Aquatic Center";"Sports/Kids (Windsurfing & Sailing Camps helper)";"Shoreline";"Mountain View";"CA";"";"";"";"650-965-7474";"Jim Airo";"";""
7247;3;"The Senior Games";"Senior/Disabled (Senior Games Mascot/Photographer)";"Stanford University";"Palo Alto";"CA";"";"";"";"650-323-9400";"";"";""
7249;10;"Cantor Art Museum";"General/Community (Distributing Rack Cards for Studio Exhibition)";"Stanford University";"Palo Alto";"CA";"";"";"";"650-724-3600";"Margaret Whitehorn";"";""
7250;2;"California Youth Soccer Association";"Sports/Kids (Assistant Coaching in Soccer)";"765 Portola Rd.";"Portola Valley";"CA";"94028";"";"";"";"Ernesto Cruz";"";""
7251;1;"Kids Against Poverty";"Education (Lecture of Wildlife)";"";"";"";"";"";"";"";"Stephanie Osborne";"";""
7252;7;"Pancreatic Cancer Action Network";"Health Care/Safety (Benefit Consert & Lecture)";"2141 Rosecrans Ave. ";"El Segundo";"CA";"90245";"";"";"1-310-725-0025";"Lehua Greenman";"";""
7253;2;"Gamble Garden Center";"Sports/Kids (Family Day- Helping Children with crafts)";"1431 Waverley St.";"Palo Alto";"CA";"94301";"";"";"650-329-1356";"Susann Mirabella/ Robin Allen";"";""
7254;9;"InnVision";"Food/Shelter (Helping set up dinner for homeless)";"33 Encina Ave.";"Palo Alto";"CA";"94301";"";"";"650-853-7066 X 5";"Kristin Claler";"";""
7255;9;"InnVision- PA Food Closet";"Food/Shelter (Baking & Cooking for Homeless)";"360 Kellogg Ave.";"Palo Alto";"CA";"94301";"";"";"650-561-3890";"Jane Solomon/ Sara Callahan";"";""
7256;10;"Palo Alto High School Music Boosters";"General/Community (working at Flea Market)";"Palo Alto High School (50 Embracadero Rd)";"Palo Alto";"CA";"94301";"";"";"650-329-3710";"Jeff Willner";"";""
7259;10;"Reikes Center";"General/Community (Giving Tour & Music Lesson, helping facility & kids, etc...)";"3455 Edison Way";"Menlo Park";"CA";"94025";"";"";"650-364-2509";"Lex Ebbink-Alemania/ Gary Reikes";"";""
7260;2;"Right To Play";"Sports/Kids (Leading Activities for Kids)";"65 Queen St. West";"Toronto";"Ontario";"M5H2M5";"Canada";"";"1-416-498-1922";"Doreen Mullady";"";""
7261;10;"National Charity League";"General/Community (Make Crafts for American Red Cross & Pilgrim Haven)";"";"";"";"";"";"";"";"Lisa Carmel";"";""
7264;1;"East Palo Alto Tennis & Tutoring (EPATT)";"Education (Tutoring Math & English to Kindergarteners)";"P.O. Box 60597";"";"";"";"";"";"650-823-0516";"Dave Hiaoki";"";""
7265;10;"Palo Alto Auxiliary";"General/Community (Lucile Parkards American Girl Fashion Show)";"P.O. Box 7064";"Menlo Park";"CA";"94026";"";"";"650-968-8409 or 650-364-2587";"Sarah Beetem";"";""
7266;10;"American Cancer Soviety";"General/Community (Make bags for Relay for Life)";"1650 Amphlett Blvd. Ste 110";"San Mateo";"CA";"94402";"";"";"650-578-9902";"Lisa Carmel/ Nancy Jones";"";""
7267;10;"African Library Book Drive";"General/Community (BLC Book Packing)";"";"";"";"";"";"";"";"R. Kellerman";"";""
7270;9;"Free The Children";"Food/Shelter (Baked goods to fundraising for childrens in Kenya)";"530 Lytton Ave.";"Palo Alto";"CA";"94301";"";"";"";"Shames Panaki";"";""
7274;3;"Bay Area Senior Games";"Senior/Disabled (Volunteer Tabletennis Tournament for Senior Games)";"Stanford University";"";"CA";"";"";"";"650-793-2563";"Dennis Davis";"";""
7276;4;"City of San Mateo ";"Animal/Environment (Bay Clean Up)";"330 W. 20th Ave.";"San Mateo";"CA";"";"";"";"650-522-7300";"Kay McCain";"";""
7277;6;"Rebuilding Together Peninsula (RTP)";"Home/ Construction (Outdoor & Warehouse Help)";"841 Kaynyne St.";"Redwood City";"CA";"94063";"";"";"650-366-6597";"Lily Abt";"";""
7278;4;"Green Waste";"Animal/Environment (Waste Education at Festival)";"2000 Geng Rd.";"Palo Alto";"CA";"";"";"";"650-799-3213";"Zea Luce";"";""
7279;10;"Stanford Campus Recreation Association";"General/Community (Hospitality for Club Open House & Count Ribbons)";"875 Bowdoin St. ";"Stanford";"CA";"94305";"";"";"650-736-7272";"Jeannie Meyer";"";""
7280;10;"Nixon PTA";"General/Community (PTA Auction Checkout Runner)";"1711 Stanford Ave.";"Palo Alto";"CA";"94305";"";"";"650-856-1622";"Gioia Allegretti";"";""
7281;10;"Project Linus South Bay/ San Jose";"General/Community (Sewing Labels on blankets)";"11061 S. Stelling Rd. ";"Cupertino";"CA";"95014";"";"";"408-252-1858";"Sharon Lee";"";""
7282;3;"2009 Summer National Senior Games";"Senior/Disabled ( Registration & Cyber Cafe Attendant)";"Stanford University";"Stanford";"CA";"";"";"volunteers@2009seniorgames.org";"650-323-9400";"Bonnie Luftig";"";""
7283;2;"Sky Camp";"Sports/ Kids (Volunteer work with little kids)";"1207 Waverley St.";"Palo Alto";"CA";"94301";"";"";"650-796-1200";"Slylor Dororn";"";""
7284;4;"Global Volunteers";"Animal/ Environment (Ambassador)";"875 E. Little Canada Rd.";"";"";"";"";"";"651-407-6100";"Nia Salas";"";""
7286;2;"Midnight Basketball";"Sports/ Kids (Coach at Youth Basketball Camp)";"398 Irving Ave.";"San Jose";"CA";"95728";"";"";"408-315-3962";"Scott Peters";"";""
7288;2;"Edgewood House School";"Sports/ Kids (Working with children: reading stories, painting & supervising)";"";"";"";"";"";"";"650-424-1315";"Tanya Stabinsky";"";""
7289;10;"Paly Christmas Tree Lot";"General/ Community (Sale person & Help guide people through the tree lot)";"50 Embarcadero Rd.";"Palo Alto";"CA";"94301";"";"";"853-0456";"Kristine Peterson";"";""
7290;2;"Palo Alto Midnight Basketball";"Sports/ Kids (Coach at Youth Basketball Camp)";"398 Irving Ave.";"San Jose";"CA";"95728";"";"";"408-315-3962";"Scott Peters";"";""
7291;2;"Stanford All-Sports Camp";"Sports/ Kids (Volunteer Camp Counselor)";"641 E. Campus Dr.";"Stanford";"CA";"94305";"";"";"650-725-0745";"Pam Mahlow";"";""
7294;1;"Stretch To Kindergarten";"Education (Classroom Assistant, Interacting & Supervising children)";"P.O. Box 391597";"Mountain View";"CA";"94039";"";"";"650-464-6307";"Liz Simons/ Betsy Nikolchev";"";""
7296;10;"Parents Association of Just Dance";"General/ Community (Fundraising: sales flowers & tickets)";"2612 Union Ave. ";"San Jose";"CA";"95124";"";"";"650-799-5008";"Krasty Smale";"";""
7297;10;"Paly Sports Boosters";"General/ Community (Tree Tying)";"50 Embarcadero Rd.";"Palo Alto";"CA";"94301";"";"";"650-329-1349";"Yina Bono";"";""
7299;2;"Stanford Camps Recreation Association";"Sports/ Kids (Volunteer at Timing & Swimming in swim meet & Dinner clean up)";"875 Bowdoin ";"Stanford";"CA";"94305";"";"";"650-736-7272";"Andrea Barnes";"";""
7302;2;"JLS Wrestling";"Sports/ Kids (Coach Middle School Wrestling)";"480 E. Meadow";"Palo Alto";"CA";"";"";"";"650-219-6383";"Bravmon Creighton";"";""
7303;9;"Bay Scouts of America";"Food/ Shelter (Drop off & pick up scouting for food & Memorial Flag Decorating) ";"1305 Middlefield Rd.";"";"";"";"";"";"650-743-9051";"Harry Vertelney";"";""
7304;10;"TEAM";"General/ Community (Luna volunteer)";"50 Embarcadero Rd.";"Palo Alto";"CA";"94301";"";"";"650-722-0393";"Linn Hori";"";""
7305;1;"California Family Foundation";"Education (Classroom Assistant)";"3201 Ash St.";"Palo Alto";"CA";"94306";"";"";"650-424-9753";"Meralin Anderson";"";""
7306;10;"Key Club";"General/ Community (Fasting for Awareness)";"50 Embarcadero Rd.";"Palo Alto";"CA";"94301";"";"";"";"Erica Ji";"";""
7307;1;"Palo Alto Summer School ";"Education (Classroom Assistant)";"Fairmeadow Elementary School (500 E. Meadow Dr.)";"Palo Alto";"CA";"94306";"";"";"650-329-3769";"Melissa Fassler/ Wendy Velez";"";""
7309;10;"Paly YCS-Interact";"General/ Community (Moonlight Run Event volunteer)";"50 Embarcadero Rd.";"";"CA";"94301";"";"";"650-329-3710";"Hannah Kim";"";""
7310;5;"Senator Joseph Simitian";"Civic Engagement (Internship)";"160 Tounano Country Village";"Palo Alto";"CA";"94301";"";"";"650-688-6384";"Tyler Haskell";"";""
7312;2;"Palo Alto Little League (Royals Coach Pitch Baseball Team)";"Sports/ Kids (Coach Assistant: help at practices & games)";"3672 Middlefield Rd.";"";"CA";"94303";"";"";"";"Rich Pearson";"rich.pearson@yahoo.com";""
7313;7;"Med Share";"Health Care/ Safety (Sorting Medical Supplies)";"2937 Alvarado St.";"San Leandro";"CA";"94577";"";"";"510-567-7070";"Terry Monday";"";""
7314;10;"Boys & Girls Club of The Peninsula";"General/ Community (Recruiting, meeting, games & clinics)";"1109 Hilton St.";"Redwood City";"CA";"";"";"";"650-587-9370";"Peter Portchborgh";"";""
7315;8;"EUO, RSC6";"Humanitarianism (Wyclet Jean Campaign- HAITI)";"200 Madison Ave.";"N.Y.";"NY";"10016";"";"";"212-367-6800";"Allison Pinter";"";""
7316;2;"Palo Alto Water Polo";"Sports/ Kids (Helping run a tournament)";"50 Embarcadero Rd.";"";"CA";"94301";"";"";"650-740-2936";"Cory Olcott";"";""
7317;10;"USA Works Fob Foundation ";"General/ Community (fundraising)";"2124 Main St. Suite 240";"Huntington Beach";"CA";"";"";"";"714-500-5449";"Jenny Stephanepolous";"";""
7318;7;"Agile Physical Therapy";"Health Care/ Safety (Nemaline Myocathy Fundraiser)";"2450 El Camino Real #101";"Palo Alto";"CA";"";"";"";"650-565-1706";"Marc Guiliet";"";""
7319;3;"National Senior Games Association";"Senior/ Disabled (Triple & Long Jump Pit)";"Baton Rouge";"LA";"";"";"";"";"713-853-8777";"Baird Lloyd";"";""
7320;2;"AYSO (American Youth Soccer Organization)";"Sports/ Kids (Coach Assistant for soccer practices & games)";"CVPA, Palo Alto AYSO P.O. Box 1493";"Palo Alto";"CA";"94302";"";"";"";"Aznur Mohamed";"volunteer-coord@ayso26.org";""
7321;10;"Summer's Best 2 Weeks";"General/ Community (Summer Camp Work Crew: served meals, cleaning camp facilities)";"111 Lake Gloria Rd. ";"Boswell";"PA";"15531";"";"";"814-629-9744";"Kristin Conrad";"";""
7322;6;"Global Works";"Home/Construction (Community Renovation Project in Costa Rica: building for new school room, construction works & cleaning)";"2342 Broadway";"Boulder";"CO";"80304";"";"";"303-545-2202";"Erik Werner";"";""
7323;7;"Stanford University Dept. of Neurology ";"Health Care/ Safety (Assistant in Lab work & duties)";"Steinmam Lab Beckman Center B002 279 Campus Dr.";"Stanford";"CA";"94305";"";"";"650-723-7295";"Dr. Hedwich Kuipers";"";""
7324;10;"Sea Scout Ship Intrepid";"General/ Community (selling X-mas Trees for Scouts)";"675 Seaport Blvd.";"Redwood City";"CA";"";"";"";"650-714-5191";"Ken Shupe";"";""
7325;10;"Haymarket Theater";"General/ Community (Theater Stage Tech building & control)";"50 Embarcadero Rd.";"";"CA";"94301";"";"";"650-329-3857";"Kathleen Woods";"";""
7326;10;"PALY Environmental Initiative Club";"General/ Community (Club meeting & Lunch Activity)";"50 Embarcadero Rd.";"Palo Alto";"CA";"94301";"";"";"650-380-8787";"Shirley Tokheim";"";""
7327;10;"Friendship Circle";"General/ Community (Training session & Friend at home events)";"3900 Fabian Way";"Palo Alto";"CA";"94303";"";"";"650-858-6990";"Ezzy Schosteimen ";"";""
7328;4;"Creek & River Clean Up";"Animal/ Environment (Creek Clean Up)";"316 Emerson Ave. ";"Palo Alto";"CA";"94306";"";"";"650-704-8608";"Jim McCarthy";"";""
7329;4;"Greenwaste";"Animal/ Environment (Greenwaste at Glass Festival in Palo Alto)";"2000 Geng Rd.";"Palo Alto";"CA";"";"";"";"650-799-3213";"Zea Luce";"";""
7331;6;"Parents Nursery School";"Home/Construction (School Maintenance) ";"2328 Louis Rd.";"Palo Alto";"CA";"94303";"";"";"650-856-1440";"Ying Wang";"";""
7332;4;"Palo Alto Parks & Recreation";"Animal/ Environment (Fixing Turf at Heritage Park)";"Homer & Bryant";"Palo Alto";"CA";"";"";"";"650-329-2366";"Granger";"";""
7333;10;"El Camino Hospital Foundation";"General/ Community (Traffic Cop & Gifts Runner)";"2500 Grant Rd.";"Mountain View";"CA";"94040";"";"";"650-940-7000";"Mader Chaleff";"";""
7334;2;"Oshman Family Jewish Community Center";"Sports/ Kids (Counselor Training, teach kids in swimming, interact & supervise kids in camp projects)";"4000 Middlefield Rd. Building R";"Palo Alto";"CA";"94303";"";"";"650-493-9400";"Whitney Pollack";"";""
7336;10;"Volunteered with Gohns & Colitis Foundation";"General/ Community (Set up, served & cleaned up Water Stations in Rock & Roll Half Marathon Fund Raiser)";"";"San Jose";"CA";"";"";"";"646-717-6205";"Breanne Long";"";""
7338;10;"Jewish Community Teen Foundation";"General/ Community (Leadership council: meeting, fundraising & interview potential members)";"3921 Fabian Way";"";"";"";"";"";"852-9020";"Gillad Salmon";"";""
7339;10;"Paly College & Career Center (CCC)";"General/ Community (Helping with Get Involved)";"50 Embarcadero Rd.";"Palo Alto";"CA";"94301";"";"";"650-329-3877";"Christina Owen";"";""
7341;10;"Gamble Garden";"General/ Community (Halloween Party at Gamble Garden)";"1431 Waverley St.";"Palo Alto";"CA";"94301";"";"";"949-5306";"Jill Soltau";"";""
7342;10;"Paly Theatre Fundraising";"General/ Community (Paly Theatre Fundraising)";"50 Embarcadero Rd.";"Palo Alto";"CA";"94301";"";"";"650-329-3857";"Kathleen Woods";"";""
7343;1;"Paly Math Club (Middle School Math Camp)";"Education (Helped Students with Math Problems)";"50 Embarcadero Rd.";"Palo Alto";"CA";"94301";"";"";"650-329-3845";"Suzanne Antinle";"";""
7344;10;"Paly Link Crew";"General/ Community (Orientation)";"50 Embarcadero Rd.";"Palo Alto";"CA";"94301";"";"";"650-329-3856";"Micheal Najar";"";""
7345;7;"John Hopkins University";"Health Care/ Safety (Lab & Office Volunteer)";"600 North Wolfe St.";"Baltimore";"MD";"";"";"";"410-955-2159/ 410-502-5252";"Ellen Tully/ Dr. Gabrielson/ Dr. Woo";"";""
7346;3;"Lytton Gardens";"Senior/ Disabled (Volunteer for friendship, entertainment & intellectual stimulation to seniors)";"437 Webster St.";"Palo Alto";"CA";"94301";"";"";"650-617-7367";"Bethany Dinh";"bdinh@lyttongardens.org";""
7347;1;"Mith Inkvisition Summer School";"Education (Teacher Assistant)";"800 Barron Park Ave.";"Palo Alto";"CA";"94306";"";"";"650-858-0508";"Melissa Faussler Hauer";"";""
7348;10;"Stanford University Medical Center Auxiliary";"General/ Community (Gift Shop)";"300 Pasteur Dr. Room H1130E";"Stanford";"CA";"94305";"";"";"650-723-6636";"Epardle";"";""
7350;9;"Urban Ministry Food Closet";"Food/ Shelter  ";"425 Hamilton Ave.";"Palo Alto";"CA";"";"";"";"650-325-3663";"Pat Keicher";"";""
7351;10;"Paly Key Club";"General/ Community (Multi-events Volunteer: Moonlight Run, Palo Alto RFL-set up, walking & stand helper, Fundraising & FOPAL Book sale)";"50 Embarcadero Rd/";"Palo Alto";"CA";"94301";"";"";"650-868-3859";"Kevin Hu";"";""
7352;2;"Palo Alto Elite Volleyball Club";"Sports/ Kids (Coach Assistant)";"2702 Waverley St.";"Palo Alto";"CA";"94306";"";"";"650-248-1222";"Craig Bankowski";"";""
7353;1;"Addison Elementary";"Education (Teacher Assistant: correcting, grading, creating & helping in teacher works)";"650 Addison Ave.";"Palo Alto";"CA";"94301";"";"";"650-322-5935";"Joanne Conner";"";""
7354;4;"Peninsula Humane Society";"Animal/ Environment (Feeding Baby Birds)";"4000 Middlefield Rd. Building V";"";"";"";"";"";"650-494-7283";"Maris Brenn-White";"";""
7355;3;"Sunrise Assisted Living";"Senior/ Disabled (Assisting Senior Citizens)";"2701 El Camino Real";"";"";"";"";"";"650-326-1108";"Karen Lerner";"";""
7356;1;"Palo Alto High School (ARC)";"Education (Tutoring)";"50 Embarcadero Rd.";"";"CA";"94301";"";"";"650-329-3710";"Noel Beltler";"";""
7357;10;"PTA Council (Art)";"General/ Community (Jamboree Volunteer)";"";"";"";"";"";"";"";"Roxane Mehta";"";""
7358;10;"Paly PTSA";"General/ Community (Back to School Packet Stuffing)";"";"";"";"";"";"";"";"Rebecca Fox";"";""
7359;1;"International School of the Peninsula";"Education (Camp Councilor)";"151 Laura Lane";"Palo Alto";"CA";"94304";"";"";"650-251-8500";"Margam Shabani";"";""
7360;7;"Stanford University Steinman Lab";"Health Care/ Safety (Lab Volunteer: moving things, helping researchers, performing simple tacks, etc...)";"Beckman Center, Stanford University School of Medicine";"Stanford";"CA";"";"";"";"650-723-6757";"Lawrence Steinman";"";""
7361;9;"Palo Alto Farmers' Market";"Food/ Shelter  (Farmers Market volunteer)";"Parking Lot G, Gilman St";"Palo Alto";"CA";"";"";"";"";"Nancy Pleibel";"";""
7362;10;"Menlo Park Presbyterian Church (MPPC)";"General/ Community (Mini Day Camp Drama Team) ";"950 Santa Cruz Ave.";"Menlo Park";"CA";"94025";"";"";"650-323-8625";"Jessica Schmidt";"";""
7363;7;"Red Cross (Safe ride)";"Health Care/ Safety (Safe ride Volunteer)";"400 Mitchell Lane";"";"";"";"";"";"877-753-7433";"Talayeh Ghezel";"";""
7364;9;"Glide Memorial";"Food/ Shelter (Serving & Bagging Breakfast & Lunch) ";"330 Ellis St.";"San Francisco";"CA";"94102";"";"";"415-674-6000";"R.F";"";""
7365;10;"New Creation Home Renovation";"General/ Community (Organized & Cleaned Garage & Office)";"781 Avelar ";"East Palo Alto";"CA";"94303";"";"";"650-740-1301";"Terry Robertson";"";""
7366;7;"Freedom Run";"Health Care/ Safety (Freedom Run for Human Trafficking Awareness & Prevention)";"Oak Knoll Elementary School, 1895 Knoll Lane";"Menlo Park";"CA";"94025";"";"";"703-342-6763";"Reagan Thompson";"";""
7367;1;"Sam Camp-EPA (Brentwood School)";"Education (Tutored & Mentored Elementary Children in EPA)";"400 N. Winchester Blvd.";"Santa Clara";"CA";"95050";"";"";"650-303-2063/408-261-0613";"King Anderson/Kathy Berggren";"";""
7372;10;"Anti-Defamation League";"General/ Community (Registration)";"720 Market St.";"Palo Alto";"CA";"94301";"";"";"415-981-3500 ex 230";"Josh Rosenberg";"";""
7374;1;"Paly ARC (Academic Resource Center)";"Education (Tutoring)";"50 Embarcadero Rd.";"Palo Alto";"CA";"94301";"";"";"650-329-3846";"Noel Beitler";"";""
7376;1;"Jordan Middle School Math Club";"Education (Teaching, helping & Running Math Club & Contests)";"750 N. California Ave.";"Palo Alto";"CA";"94303";"";"";"650-213-0211";"Elinor Slack";"";""
7377;10;"Chinmaya Mission West";"General/ Community (Washing Dishes & Filling up water bottles)";"P.O. Box 129";"Piercy";"CA";"95587";"";"";"305-279-8456";"Prakash Bettadapur";"";""
7378;1;"Zero Gravity Tech Challenge Team";"Education (Build Electromagnet, Manage Test Trials & Clean up) ";"1656 Channing Ave.";"Palo Alto";"CA";"94303";"";"";"650-430-6146";"Xiangzhou Wang";"";""
7379;10;"Paly Robotics Club";"General/ Community (Administration: set up classes & meetings schedule, contact members & techshop)";"50 Embarcadero Rd.";"Palo Alto";"CA";"94301";"";"";"650-329-3880";"Doug Bertain";"";""
7380;10;"Chinmaya Mission San Jose";"General/ Community (Curfew management, Writing & Editing Script, Stage set up, Pop building, Clean up)  ";"1050 Park Ave.";"San Jose";"CA";"95126";"";"";"408-998-2793";"Aruna Natraj";"";""
7381;10;"Palo Alto YMCA";"General/ Community (Training)";"3412 Ross Rd.";"Palo Alto";"CA";"94303";"";"";"650-856-9622";"Melissa Bryer";"";""
7382;9;"InnVision Food Closet";"Food/ Shelter (Serving, Packing & Computer Works) ";"425 Hamilton Ave.";"Palo Alto";"CA";"94301";"";"";"650-325-3663";"Shirley Reiter";"";""
7383;4;"Paly Environmental ";"Animal/ Environment (Bayland Clean Up)";"1329 Waverley St.";"Palo Alto";"CA";"94306";"";"";"650-380-8787";"Micheal Abrarns";"";""
7384;10;"Walter Hays Book Fair";"General/ Community (Helping Girl Scouts with gift wrapping & bookfair clean up)";"1525 Middlefield Rd.";"Palo Alto";"CA";"94301";"";"";"650-321-1110";"Melissa Look";"";""
7385;10;"Job Train";"General/ Community (Administration & Child Day Care Works)";"1200 O'Brien Dr. ";"Menlo Park";"CA";"94025";"";"";"650-330-6419";"Rebecca Gourevitch";"";""
7386;4;"Palo Alto Junior Museum & Zoo";"Animal/ Environment (Animal Training & Critter Talks)";"1451 Middlefield Rd.";"Palo Alto";"CA";"94301";"";"";"650-329-2111";"Alex Hamilton";"";""
7387;2;"YMCA Girls Basketball";"Sports/Kids (Practices)";"3412 Ross Rd.";"Palo Alto";"CA";"94303";"";"";"650-856-9622";"Jeremy Johnson";"";""
7388;2;"YMCA   ";"Sports/ Kids (YMCA Child-watch)";"3412 Ross Rd.";"Palo Alto";"CA";"94303";"";"";"650-842-7165";"Samina Syed";"";""
7389;10;"Duveneck PTA";"General/ Community (Administration & Meetings for events)";"705 Alester Ave.";"";"";"";"";"";"415-322-6946";"Lauren Barley";"";""
7390;7;"Palo Alto Red Cross";"Health Care/ Safety (Safe ride Volunteer)";"400 Mitchell Lane";"Palo Alto";"CA";"";"";"";"650-688-0415";"Emma Ruder";"";""
7391;2;"Kinderhaus Am Hochwald";"Sports/Kids (Helping in Daycare Group)";"Nachtflugelweg 16, 01324 Dresden";"";"";"";"Germany";"";"011-49-350-268-7877";"Carola Geyer";"";""
7392;1;"PAUSD Summer School Program";"Education (Teacher Aid in 4th Grade Math Intervention Class ";"Fairmeadow Elementary School (500 E. Meadow Dr.)";"Palo Alto";"CA";"94306";"";"";"650-833-4202";"Melissa Fassier";"";""
7393;10;"Palo Alto High School (CCC)";"General/ Community (Database formating, Volunteer for Paly Get Involved, Magazine Organization)";"50 Embarcadero Rd.";"Palo Alto";"CA";"94301";"";"";"650-329-3877";"Christina Owen";"";""
7398;3;"Marine-Science Institute";"";"";"";"";"";"";"";"650-369-2760";"Aaron Tinker";"";""
7400;1;"PALY-Debate";"";"";"";"";"";"";"";"650-307-2018";"Jennie Savage";"";""
7401;7;"CISV San Francisco";"";"";"";"";"";"";"";"650-400-9762";"Tracey Fecher";"";""
7402;2;"Stanford Hospital Auxillary";"";"";"";"";"";"";"";"650-723-6636";"Margie Lee";"";""
7403;9;"City of Palo Alto Summer Excellent Adventure Camp";"";"";"";"";"";"";"";"650-46304953";"Minka Vanderzwaag";"";""
7404;1;"PALY-ARC";"";"";"";"";"";"";"";"";"";"";""
7405;4;"Columbia University College of Physicians + Surgeons";"";"630 west 168th st.";"New York";"NY";"10032";"";"";"917-804-0783";"Dominique Toran-Allerand";"";""
7408;1;"Camp Jawonga";"";"131 Steavit Street, Suite 460 ";"San Francisco";"CA";"94105";"";"";"415-543-2267";"Aaron Mandel";"";""
7409;2;"Lucille Packard Children's Hospital";"";"";"";"";"";"";"";"650-497-8820";"Regina Harnish";"";""
7410;6;"St. Marks";"";"606 Colorado Avenue";"Palo Alto, ";"CA";"94306";"";"";"650-326-3800";"Liz Graves";"";""
7416;3;"Friends of Foothill Park";"";"";"";"";"";"";"";"";"";"";""
7417;4;"PAUSD summer school";"";"";"";"";"";"";"";"";"";"";""
7418;10;"PALY-key club";"";"";"";"";"";"";"";"";"";"";""
7420;4;"St. Elizabeth Seton Elementary School";"tutoring";"1095 Channing Ave. ";"Palo Alto";"CA";"94301";"";"";"650-326-9004";"Teresa Lund";"";""
7423;2;"Stanford University Medical Center Auxillary";"";"";"";"";"";"";"";"650-723-6636";"Bitty Cowart";"";""
7424;3;"Westwind horse ride";"";"";"";"";"";"";"";"";"";"";""
7426;6;"Relief Spark";"";"236 Tullulah Avenue";"River Ridge ";"CA";"70123";"";"";"504-377-7854";"Sidney Ray";"";""
7427;7;"Santa Clara Community Center";"";"224 Centre Pointe Dr.";"Milpitas";"CA";"";"";"";"408-262-7325";"Naureen Patel";"";""
7428;6;"Home base CCC";"";"870 Market Street, Suite 1228";"San Francisco";"CA";"94102";"";"";"415-788-7961";"Kevin Knapp, Marty Fleetwood, Beth Thenault";"";""
7429;9;"Grass Roots Soccer";"";"198 Gherch Street";"Norwich";"VT";"5055";"";"";"802-649-2900";"Brooke Rosenbomer";"";""
7432;1;"Tzuchi";"";"";"";"";"";"";"";"";"";"";""
7434;2;"Stanford University Dept of Biology";"";"";"";"";"";"";"";"650-723-2227";"Tim Gulbertson, Virginia Walbot";"";""
7435;10;"PALY-In focus TV network";"";"";"";"";"";"";"";"650-329-3831";"Mike McNulty";"";""
7438;4;"PALY-christmas Tree lot";"";"";"";"";"";"";"";"650-722-4470";"Nick Peterson";"";""
7439;2;"Safe Ride ";"";"400 Mitchell Lane";"Palo Alto";"CA ";"";"";"";"877-753-7433";"Steve Rooks";"";""
7440;7;"Media Center";"";"";"";"";"";"";"";"";"";"";""
7441;1;"Girl Scouts";"";"";"";"";"";"";"";"650-968-8396";"Suzanne Bell";"";""
7445;4;"PALY-CCC(Get Involved)";"";"";"";"";"";"";"";"";"";"";""
7447;1;"Common Ground Relief";"";"1800 Deslovele St.";"New Orleans";"LA";"";"";"";"504-942-3737";"Sam Freidhof";"";""
7448;4;"Jewish community Service-BBYO";"";"14855 Oka Road";"Los Gatos";"CA";"";"";"";"408-357-7426";"Jill Pottel";"";""
7449;8;"Amigos de Palo Alto";"";"";"";"";"";"";"";"650-493-4300";"Mariateresa Torres";"";""
7450;6;"PALY-Smile CharityClub";"";"";"";"";"";"";"";"650-327-8630";"Kaye Paugh";"";""
7451;9;"Senior Games-Bay Area";"";"";"";"";"";"";"";"";"";"";""
7452;4;"PAUSD-Escondido";"";"890 Escondido Road";"Palo Alto";"CA";"";"";"";"650-856-1337";"Jalynn Kiger";"";""
7454;2;"Red Cross";"";"";"";"";"";"";"";"";"";"";""
7455;1;"PALY-YCS";"";"";"";"";"";"";"";"";"";"";""
7456;2;"Learnika";"";"572 College Avenue";"Palo Alto";"CA";"";"";"";"650-248-2800";"Novlorlia de la Chica";"";""
7457;4;"PALY-Mrs. Choy";"";"";"";"";"";"";"";"";"";"";""
7458;6;"Friends of the Poor";"";"P.O. Box 60506";"Palo Alto";"CA";"94306";"";"";"650-269-2862";"Dan Marshall";"";""
7459;4;"Abode Inc";"";"588 Brown Road";"Fremont ";"CA";"";"";"";"510-252-0910 X11";"Mary Little";"";""
7460;4;"Christian Music Theatre";"";"3149 Waverley Street";"Palo Alto";"CA";"94306";"";"";"650-494-1212";"Karen Salveson";"";""
7461;10;"Plantronics Inc.";" ";"345 Encinal St. ";"Santa Cruz";"CA";"95060";" ";" ";"831-222-7983";"Cathy Pell";" ";""
7462;10;"Individual Project";" ";"36608 Mulberry Street";"Newwark";"CA";"94560";" ";" ";"510-284-9979";"Alma Huifta";"";""
7463;9;"Milpitas Food Pantry";" ";"196 S. Main Street";"Milpitas";"CA";"95035";" ";" ";"408-946-5564";"Christina Owen";"";""
7464;10;"Creative Montessori";" ";"1421 Bay Eoad";"East Palo Alto";"CA";"94302";"USA";" ";" ";" ";"";""
7465;10;"Blossom Birth";" ";"299 S. California Ave. ";"Palo Alto";"CA";"94306";" ";" ";"650-321-2326";"Mora";"";""
7466;10;"Congregation Beth David";" ";"19700 Prospect Road";"Saratoga ";"CA";"95070";" ";"";"408-257-3333";"Irene Swedroe";"";""
7467;10;"Medaka no Gakko";" ";"2751 Louis Road";"Palo Alto";"CA ";"94303";" ";"";"650-493-0780";"Medaka";"";""
7469;4;"Half Moon Bay Restoration";" ";"95 Kelly Avenue";"Half Moon Bay";"CA";"94019";" ";"";"650-726-8801";"Kenneth Robert";"";""
7470;10;"Chinese Community Center-PAlo Alto";" Palo Alto";"59 Morton Way";"Palo Alto";"CA";"94303";" ";" ";"650-856-8846";"John Yee";"";""
7471;1;"Piccolo Preschool";" ";"888 Boyce Ave. ";"Palo Alto";"CA";"94301";"";"";"650-323-9668";"Mechele Pruitt";"";""
7472;10;"Far East Living";" ";"540 University Avenue";"Palo Alto";"CA";"94301";"";"";"650-283-2800";"Ester Shih";"";""
7473;1;"Hoover Elementary School";" ";"445 E. Charleston Road";"Palo Alto";"CA";"94306";"";"";"650-320-8106";"Susanne Scott";"";""
7474;9;"St. Christopher Youth Ministry";"";"2278 Booksin Avenue";"San Jose";"CA";"95125";"";"";"408-265-3230";"Robbie Ocampo";"";""
7475;10;"Dr. Ian Pun/ Dr. Christina W";"";"4040 Rinch Ave. East";"Scarborough ";"Ontario";"M1S 4V5";"Canada";"";"416-818-7788";"Dr. Ian Pun";"";""
7476;10;"Erindale Medical Center";"";"1101 McBride Ave.";"Missisauga";"Ontario";"L5C 1M 6";"Canada";"";"905-273-3797";"Dr. Stephen Lo.";"";""
7477;2;"Penninsula Youth Sailing Foundation";"";"1200 Chesapeake Dr.";"Redwood City";"CA ";"94063";"USA";"";"650-854-1048";"Eric Anderson";"";""
7478;2;"Stanford Sailing Camp";"";"300 Cardinal Way";"Redwood City";"CA";"94061";"";"";"650-387-2674";"John Vandemoer";"";""
7479;2;"Youth Family Enrichment";"";"1305 Middlefield Road";"San Carlos";"CA";"94070";"";"";"650-591-9623";"Merle Saber";"";""
7480;10;"Camp Oljato";"Boy Scouts";"P.O. Box 217";"Lakeshore";"CA";"";"";"";"559-893-3393";"John Crouch";"";""
7481;1;"Cornerstone Korean School";"";"1057 E. Meadow Circle";"Palo Alto";"CA";"94305";"USA";"";"650-269-0162";"Hyekyong Chang";"";""
7482;1;"California Youth Symphony";"";"441 S. California Ave. ";"Palo Alto";"CA";"94306";"";"";"650-326-6666";"Padma Gargeya";"";""
7483;10;"Stern Grove Festival Association";"";"44 Page St. Suite 600";"San Francisco";"CA";"94102";"";"";"415-252-6253";"Jessica Zeidman";"";""
7484;10;"Boy Scouts of America-Troop 57";"";"159 Tennyson Ave.";"PAlo Alto";"CA";"94301";"";"";"650-269-7407";"Simon Fox";"";""
7485;4;"Curi Odyssey";"";"1651 Coyote Point Dr. ";"San Mateo";"CA";"94403";"USA";"";"650-340-7589";"Alex Ridyard/Niki";"";""
7486;3;"Friends of Children with Special Need ";"";"2300 Perslta Blvd.";"Fremont ";"CA";"94536";"";"";"510-473-2768";"Albert Wu";"";""
7487;4;"Oregon Green Homeowners Association";"";"353 Main St.";"Redwood City";"CA ";"94063";"";"";"650-269-3486";"Camille Townsend";"";""
7488;10;"St. Clare's Parish (San Jose Chinese Catholic Community)";"";"725 Washington St.";"Santa Clara";"CA";"95050";"USA";"";"650-906-7158";"Patrick Ku";"";""
7489;9;"Village HArvest";"";"P.O. Box 9231";"San Jose";"CA";"95157";"USA";"Karen Hurst/Chriolet Casjess";"888-378-4841";"";"";""
7490;9;"Community Sevice Agency";"";"204 Stierlin Rd.";"Mountain View";"CA";"94043";"";"";"650-968-0836 X 150";"LaDrea Clark";"";""
7491;9;"Silicon VAlley Turkey Trot";"";"244 Airport Pkwy, suite 620";"San Jose";"CA";"95110";"USA";"";"530-219-0422";"Melissa Burke";"";""
7492;10;"University Luther Church";"";"1611 Stanford Ave.";"Palo Alto";"CA";"94303";"USA";"";"650-857-9660";"Pastor Gwen Schafer ";"";""
7493;7;"Cystic Fibrosis Research Inc";"";"2672 Bayshore Pky, Suite 520";"Mountain View";"CA";"94043";"USA";"";"650-404-9975";"Mary Convneto";"";""
7494;7;"Palo Alto Fire Department";"";"711 Serra";"PAlo Alto";"CA";"94301";"";"";"650-329-2649";"Shane Yarbrough";"";""
7495;10;"YMCA Camp Campbell";"";"";"Boulder Creek";"CA";"95006";"";"";"831-338-2128";"Danny Koba";"";""
7496;1;"Family Center Summer Program";"";"422 Hibiscus Ct.";"East Palo Alto";"CA";"94303";"USA";"";"650-421-5531";"Josefina Guillen";"";""
7497;1;"Adventures in Missions";"";"6000 Wellspring Trail";"Gainesville";"GA";"30506";"";"";"800-881-2461";"Stephen Chen";"";""
7498;4;"Independent Project + Reflection with Jerry Rice";"";"1625 Middlefield Road";"Palo Alto";"CA";"94301";"";"";"650-326-5719";"Jerry Rice";"";""
7499;4;"UTU Social Ventures (UCLA Semel Institute Global Center)";"";"5060 Hood Dr.";"Woodland Hills";"CA";"91364";"";"";"310-794-8117";"Diane Flannery";"";""
7500;10;"SV2 (Silicon Valley social venture fund)";"";"P.O.Box 1792";"Los Altos";"CA";"94023";"";"";"650-714-3454";"Lindsay Lonie";"";""
7501;10;"Plantionics Inc.";"";"345 Encinal St.";"Santa Cruz";"CA";"";"";"";"831-227-7983";"Cathy Pell";"";""
7502;10;"Greene Academy of Irish Dance";"";"2612 Union Avenue";"San Jose";"CA";"95124";"";"";"650-521-4875";"Lyna Carey";"";""
7503;2;"Atherton Lacrosse";"";"El Camino Real & Page Mill Exp";"Palo Alto";"CA";"94303";"";"";"510-468-1175";"Greg Mengis";"";""
7504;2;"Lax & Learning";"";"1286 Runnymede St.";"East Palo Alto";"CA";"94303";"";"";"650-814-7694";"Mark Danm";"";""
7505;4;"Taylor Farm";"";"825 Route 11";"Londonderry";"VT";"";"";"http://www.taylorfarmvermont.com/";"802-379-2296";"Jonathan H. Wright";"";""
7506;8;"Pratham";"";"1203-06 Arcadia, 195 NCPA";"Nariman Point";"Mumbai";"400021";"India";"pratham.org";"91-161-4618549";"Bharatdeep Singh Malhi";"";""
7507;3;"La Comida Avenidas";"";"450 Bryant St. ";"Palo Alto";"CA";"94301";"USA";"";"650-322-3742";"Mary Ruth ";"";""
7508;2;"Roadrunnersportsclub";"";"";"palo alto";"ca";"";"";"";"650-796-3833";"Curtis Huggins/ Bruce Powell";"";""
7509;1;"SEAN (Student Equity Action Network)";" ";"1605 Mariposa Ave";"Palo Alto";"Ca";"94306";"";"";"650-804-1634";"Tremaire Kirkman";"";""
7510;1;"VBS Summer School";"";"92 Stern Vita Ave.";"Mountain View";"CA";"94043";"";"";"650-968-2900";"Shirley Chen";"";""
7511;7;"Asian Liver Center – Youth leadership conference";"Stanford University";"300 Pasteur Dr.";"Palo Alto";"CA";"94301";"";"";"650-725-6467";"Alina Wong / Diana Ngo";"";""
7512;7;"Life Guarding at Rincanada Pool";"";"777 Embarcadero Rd.";"Palo Alto";"CA";"94303";"";"";"650-329-2351";"Kristin Molano";"";""
7513;2;"Brighton Sleep Away Camp";"";"231 Middlefield Rd.";"Palo Alto";"CA";"94303";"USA";"";"650-345-2980";"Carly Hao";"";""
7514;8;"Peninsula Young Life";"";"1900 Embarcadero Rd.#110";"Palo Alto ";"CA";"94303";"USA";"";"650-813-5290";"Avdrey Bloomgren";"";""
7515;10;"Palo Alto High School Jade Ribbon Campaign Club";"";"50 Embarcadero";"Palo Alto";"CA";"94301";"";"";"";"Abraham Chung";"";""
7516;10;"PAlo Alto Medical Foundation";"";"701 E. Elcamino Road";"Palo Alto";"Ca";"94040";"";"";"650-934-7353";"Kelly McConnell";"";""
7517;10;"KMVT Community Television";"";"1400 Terra Bella Ave, Suite M";"Palo Alto";"CA";"94043";"";"";"650-968-1540";"Bobby Chastain";"";""
7518;10;"San Mateo Public Library";"";"55 W. Third Ave.";"Palo Alto";"CA";"94402";"USA";"";"650-522-7801";"Donna Divodi";"";""
7519;3;"Organization for Special Need Families";"";"20920 McClellan Rd.";"Cupertino";"CA";"95014";"USA";"";"408-996-0850";"Lihuei Wei";"";""
7520;10;"Hope Musical Theatre";"";"P.O. Box 365";"Palo Alto";"CA";"";"USA";"";"650-568-3332";"Sarah Hope";"";""
7521;7;"Second Mile";"Second Mile";"2086 Clark Avenue";"East Palo Alto";"CA";"94303";"USA";"";"650-269-4926";"Emilee ONeil";"";""
7522;7;"KAMSA Youyh Symphony Ochestra";"KAMSA";"";"";"";"";"";"http://www.kamsa.org";"";"Hyowon Choi";"";""
7523;1;"Echelon Gran Fondo";"";"";"";"";"";"";"www.echelongrandfondo.org";"415-730-1003";"Hunter Ziesing";"";""
7524;1;"Peninsula Democratic Coalition ";"";"P.O. Box 97";"Los Altos";"CA";"94023";"";"";"650-949-1009";"Shoup Park";"";""
7525;1;"Palo Alto International Flim Festival";"";"431 florence St. Suite 200";"Palo Alto";"CA";"94301";"";"";"650-641-8974";"Ashim Ahuja";"";""
7526;6;"Mi CASA Builders";"";"71 Encino Road";"Atherton";"CA";"94027";"";"";"650-867-4859";"Ken Lapoint";"";""
7527;1;"Oregon Green HOA";"";"2450 W. Bayshore Road";"Palo Alto";"CA";"94303";"";"";"650-493-3410";"";"";""
7528;1;"Zoma Worldwide Internship";"";"2942 Clara Drive";"Palo Alto";"CA";"94303";"";"";"650-241-9662";"Sherry Chuang";"";""
7529;2;"Unit of Day Care Center";"";"Levinski 108";"Tel-Aviv";"";"";"Isarel";"";"054-782-3265";"Efrat Nir";"";""
7530;4;"Sulphur Creek Nature Center";"";"1801 D. St.";"Hayward";"CA";"94507";"USA";"";"510-881-6749";"Gracie Stafford";"";""
7531;7;"California Explorer Search & Rescue";"";"205 De Anza Blvd.";"San Mateo";"CA";"94402";"USA";"";"650-340-4779";"Ken Buscho";"";""
7532;2;"Tomahawks/ Nor. Cal. Lacrosse Club";"";"P.O. Box 60613";"Palo Alto";"CA";"94306";"USA";"";"510-468-1175X 88";"Greg Mengis";"";""
7533;3;"TECHHeroes/ Heroic Imagination Project";"";"220 Halleck St. Suite G100";"San Francisco";"CA";"94129";"USA";"";"415-800-7745";"Jennifer Donegan";"";""
7534;1;"Bayshore Christian Ministries (SAIL)";"";"1001 Beech St. ";"East Palo Alto";"CA";"94303";"USA";"www.bayshore.org";"650-327-9941";"Jocelyn Juliao";"";""
7535;10;"Civil Air Patrol";"Palo Alto Airport";"1925 Embarcadero Road";"Palo Alto";"CA";"94303";"USA";"";"650-283-8259";"Jim Spears";"";""
7536;1;"Trung Tam Viet Ngu Van Lang";"Gunderson High School ";"622 Gaundabert Ln";"San Jose";"CA";"95136";"";"www.vanlangsi.org";"408-486-7085";"Hoang Le";"";""
7537;4;"Sociedad Protectora de Animales";"";"Pinos #7, col Linda Vista";"San Miguel";"GTO";"";"Mexico";"";"152-6124";"Perla Anai Barrera";"";""
7538;10;"Lord's Grace Christian Church";"";"1101 San Antonio Rd.";"Mountain View";"CA";"94043";"USA";"";"650-623-0912";"Craig Ing";"";""
7539;4;"Magic";"";"P.O. Box 15894";"Stanford";"CA";"94309";"";"";"650-323-7333";"";"";""
7540;10;"Groton Long point Women ORg.";"";"Groton Long point ";"";"CT";"";"";"";"";"Jean Bittl";"";""
7541;8;"Friends of the poor, Tamaho School Project";"";"P.O. Box 60506";"Palo Alto";"CA";"94306";"";"";"";"";"";""
7542;8;"FLY Young Fellowship";"";"22 Sec. 4, Roosevelt Rd.";"Taipei";"";"100";"Taiwan";"";"886-02-2368-2361 x 333";"Timothy Hung";"";""
7543;10;"Destination Science";"";"953 North Elm Street";"Orange Conty";"CA";"92867";"";"www.destinationscience.org";"1-888-909-2822";"Laura Wells";"";""
7544;10;"Hiller Aviation Museum";"";"601 Skyway Rd.";"San Carlos";"CA";"94070";"USA";"www.hiller.org";"650-654-0200";"Jeffery Bass";"";""
7545;9;"Our Daily Bread";"";"231 S. Sunset Ave.";"Sunnyvale";"CA";"94086";"USA";"";"408-736-4108";"David Barnes";"";""
7546;2;"Diepenbrock Basketball School";"";"1180 Orange Avenue";"Menlo Park";"CA";"";"";"";"650-714-1522";"Peter Diapenbrock";"";""
7547;10;"Santa Calra University";"";"500 El Camino Real";"Santa Clara";"CA";"95053";"";"";"408-551-3000 X4282";"Yoshiko Miyakoshi";"";""
7548;4;"Seeds of Empowerment";"";"";"";"";"";"";"";"650-280-7769";"Paul Kim";"";""
7549;4;"Startalk";"";"520 Galvez Mall, Rm 109";"Stanford";"CA";"94305";"";"";"650-736-9042";"Norman Masuda";"";""
7550;10;"Trinity Lutneran Church";"";"";"";"";"";"";"";"650-853-1295";"Vicar Stephen Preus";"";""
7551;10;"Monterey Bay Aquarium";"";"886 Cannery Row";"Monterey";"CA";"93940";"";"";"831-648-4867";"Tritia Moneypenny";"";""
7552;10;"Visions Service Adventures";"";"321 East Main St. #426";"Bozeman";"MT";"59715";"";"";"";"Katherine Dayton";"";""
7553;4;"Global Literacy Club";"";"50 Embarcadero Road";"PAlo Alto";"CA";"94301";"";"";"";"";"";""
7554;10;"Stanford Red Barn";"";"100 Electimeer Rd.";"Stanford";"CA";"94305";"";"";"650-327-2990";"Vanessa Bartsch";"";""
7555;2;"NJB (Nation Junior Basketball Organization)";"";"Palo Alto Main gym";"Palo Alto";"CA";"";"";"njb.org";"714-1522";"Peter Dipenbrock";"";""
7556;10;"Camp Towonga";"";"131 Stewart Street, suite 460";"San Francisco";"CA";"";"";"";"415-543-2267";"Ken Kramarz";"";""
7557;10;"Maker Faire";"";"San Mateo County Fair ";"";"";"";"";"";"";"";"";""
7558;10;"Palo Alto Office of Emergency Services";"";"250 Hamilton Ave.";"Palo Alto";"CA";"94301";"";"";"650-470-1258";"Rich Mallonee";"";""
7559;10;"Rancho de Espanol";"";"La Guacima de Alajwela";"";"";"";"Costa Rica";"";"";"";"";""
7560;10;"Youth  Organization of Chinese Americans (YOCA)";"";"1052 Bryant St.";"Palo Alto";"CA";"94301";"";"";"650-888-4116";"Monica Yeung Arima";"";""
7561;2;"Bintang Badminton Academy";"";"1365 Genera Dr.";"Sunnyvale ";"";"";"";"";"408-541-1837";"Jason Guarrlao";"";""
7562;10;"West Valley Chinese Language School";"";"P.O.Box 2383";"Sunnyvale ";"";"94087";"";"";"408-839-7001";"Sandy Leung";"";""
7563;2;"Kick, Lead and Dream";"";"1225 Portland Ave.";"Los Altos";"CA";"";"";"";"650-996-3056";"Ruma Nigam";"";""
7564;10;"Pacific Development & Tech, LLC";"";"999 Commercial St. Ste. 205";"Palo Alto";"CA";"94303";"";"";"650-320-8841";"Leonard Trejo, PhD";"";""
7565;10;"Bridges Community Church ";"";"625 Magdalena Ave.";"Los Altos";"CA";"94024";"";"";"650-949-6052";"Leslie Schneider";"";""
7566;10;"American Muslim Voice";"";"39675 Cedar Blvd.";"Newark";"CA";"94560";"";"";"650-387-1994";"Samin Sundas";"";""
7567;10;"Books and Me Children's Library";"";"4600 El Camino Real #205";"Los Altos";"CA";"94022";"";"http://www.booksandme.org/index_eng.html";"650-941-4379";"Monica Hu";"";""
7568;8;"Missionaries of Charity";"";"54 / AJC Bose Rd.";"";"";"";"India";"";"91-33-2249-7115";"Maria Kar";"";""
7569;1;"East Palo Alto Charter School";"";"1286 Runnymede St.";"East Palo Alto";"CA";"94303";"";"";"650-614-9100";"Azucena Estrada";"";""
7570;1;"Cross Cultural Solutions ";"";"2 Clinton Place";"New  Rochelle";"NY";"";"";"";"800-380-4777";"Makafui Amenuvor";"";""
7571;4;"B.O.K. Ranch";"";"1815 Cordilleras Rd.";"Redwood City";"CA";"94062";"";"";"650-366-2265";"Hannah McDonald";"";""
7572;10;"World Runners Silicon Valley";"";"667 Cascade Dr.";"Sunnyvale ";"CA";"";"";"";"650-329-7073";"Mark McClenahan";"";""
7573;8;"Fundacion Arriba Paraguay";"";"Cacique Lambare 415";"";"";"";"Paraguay";"";"595-21-905-883";"Jacqueline Soojin Park";"";""
7574;10;"Northern CA TKD Association (NCTA)";"";"2020 S.Bascom Ave. #C";"Campbell";"CA";"95008";"";"";"408-246-2000";"Charles Kim";"";""
7575;7;"Samsung Hospital ";"";"50 Ilwon-dong ";"Gangnam-gu";"Seoul";"135-710";"South Korea";"";"011-82-2-3410-0406";"Lee Soon Kyu";"";""
7576;2;"cholarKids, Egan Junior High";"";"";"";"";"";"";"";"";"";"";""
7577;2;"ScholarKids, Egan Junior High";"";"100 W. Portola Ave.";"Los Altos";"CA";"";"";"";"408-203-9946";"Curtis Schneider";"";""
7578;1;"Cesar Chavez School Tutoring Program";"";"2450 Ralmar Ave.";"East Palo Alto";"CA";"94303";"";"";"650-308-9814";"Cortis Monette";"";""
7579;8;"Hefei Children's Welfare Instutite";"";"No.129 Fang Wa Rd.";"Hefei";"Anhui";"";"China";"";"011-86-13916348842";"Jian Chen";"";""
7580;1;"UCSF-medical center";"";"513 Parnassus Ave.";"San Francisco";"CA";"94143";"USA";"";"415-476-8525";"Dr. Eric Huang";"";""
7581;8;"Harbin Ziming Volunteer Union";"";"266 Heng Yun Hua Yuan Suite A104 NanGang District Harbin";"";"";"";"China";"";"011 8945005216";"Yujia Li";"";""
7582;4;"Kids Love Horses";"";"2130 Birch St.";"Palo Alto";"CA";"";"";"";"650-799-3652";"Deborah Goldeen";"";""
7583;10;"no information";"";"";"";"";"";"";"";"";"";"";""
7584;2;"United Studios of Self Defense ";"";"1770 Miramonte Ave.";"Mountain View";"CA";"";"";"";"650-960-0101";"Ben Degas";"";""
7585;2;"Little Acorn School";"";"1667 Miramote Ave.";"Mountain View";"CA";"";"";"";"650-964-8445";"Josephina";"";""
7586;6;"Far West Wheelchair Athletic Association)";"";"3369 Union Ave.";"San Jose";"CA";"95124";"";"";"408-369-6448";"Adam Elix";"";""
7587;6;"Stanford Law School";"";"Palo Alto Courthouse";"";"";"";"";"";"650-724-9581";"Sara Abarbanel";"";""
7588;4;"Common Ground Garden";"";"687 Arastradero Rd.";"Palo Alto";"CA";"";"";"";"646-515-8520";"Zuzanna Drozdz";"";""
7589;1;"Resource Area for Teaching (RAFT)";"";"1355 Ridder Park Dr.";"San Jose";"CA";"94131";"";"";"408-451-1420";"Mary Anderson";"";""
7590;4;"Full Circle Farm";"";"1055 Dunford Way";"Sunnyvale";"CA";"94087";"";"";"408-735-8154";"Melissa Patel";"";""
7591;1;"Bharath Sevadal School";"";"Kumara Krupa Rd.";"Bangalore";"";"560001";"Bangalore";"";"080-2237-5802";"Lalitha H.J";"";""
7592;5;"Tourette Syndsome Association";"";"615 Plymouth Way";"Burlingame";"CA";"94010";"";"";"650-344-8896";"Margaret Marig";"";""
7593;10;"Echelon Palo Alto Gran Fondo";"";"250 Hamilton ";"Palo Alto";"CA";"94301";"";"";"415-730-1003";"David Cochran";"";""
7594;4;"Elkus Ranch";"";"1500 Purisma Creek Rd";"Half Moon Bay";"CA";"94019";"";"";"650-712-94019";"Leslie Jensen";"";""
7595;5;"PAlo Alto Weekly Holiday Funds";"";"450 Cambridge Ave.";"Palo Alto";"CA";"94301";"";"";"650-223-6588";"Rachel Palmen";"";""
7596;10;"Palo Alto Institute";"";"431 Florence St. #200";"Palo Alto";"CA";"94301";"";"";"310-963-5838";"Julia Pages";"";""
7597;10;"The Pometheus Symphony Orchestra";"";"P.O. Box 3335 ";"Oakland";"CA";"94609";"";"";"";"Eric Hansen";"";""
7598;1;"Lie Sieun Lin Music Studio";"";"21587 Rosario Ave.";"Cupertino";"CA";"95014";"";"";"408-739-8980";"Sieun Lin";"";""
7599;10;"Ruixuan Ke";"";"1425 Springer Rd.";"Mountain View";"CA";"94040";"";"";"650-940-9136";"Jie Bai";"";""
7600;10;"CCIC Mountain View Church";"";"920 Sierra Ave.";"Mountain View";"CA";"94043";"";"";"650-968-2900";"Daniel Chan";"";""
7601;7;"CAL-ESAR";"";"205 DeAnza Blvd, #30";"San Mateo";"CA";"94402";"";"";"650-340-4779";"Ken Buscho";"";""
7602;9;"Center for Student Missions";"";"CSM, P.O.Box 900";"Dana Point";"CA";"92629";"";"";"949-248-8200";"Rus Kosits";"";""
7603;10;"Next Step Ministries, Inc. (LA Impact)";"";"2935 S. Fish Hatchery Rd. #421";"Madison";"WI";"53711";"";"";"608-213-2650";"Arden Ratcliff";"";""
7604;10;"Discovering Opportunities for Outreach & Reflection (DOOR)";"";"1760 N. Gower St.";"Hollywood";"CA";"90028";"";"";"323-872-3174";"Marissa Myers";"";""
7605;10;"Walden West Science Center";"";"1555 Sanborn Road";"Saratoga";"CA";"95070";"";"";"408-573-3050";"Leigh Axelrod";"";""
7606;4;"Guide Dogs for Blind";"";"2377 St Francis Dr.";"Palo Alto";"CA";"94303";"";"";"650-813-1488";"Susan Mittmann";"";""
7607;2;"Aikido West";"";"3164 Bay Rd.";"Redwood City";"";"94063";"";"";"650-888-9780";"Cyndy Hayashi";"";""
7608;10;"Dragon Productions Theatre Company";"";"535 Alma St.";"Palo Alto";"";"94301";"";"";"408-398-6238";"Jason Arias";"";""
7609;2;"Non-profit laces Camps";"";"3910 Puncan Place";"";"";"";"";"";"650-380-2821";"Arjun Parikh";"";""
7610;10;"College Track";"";"1877 Bay Rd.";"East Palo Alto";"";"";"";"";"650-614-4875";"Sharifa Wilson";"";""
7611;5;"East Palo Alto Police Department";"";"141 Demeter St.";"East Palo Alto";"";"";"";"";"650-853-3160";"Vickie Porter";"";""
7612;1;"Foothill College Language Dept";"";"12345 El Monte Rd";"Los Altos";"";"";"";"";"650-949-7670";"Ikuko Rakow";"";""
7613;10;"First Congo Church of PA";"";"1985 Louis Rd";"PA";"CA";"";"";"";"650-856-6662";"David Howell";"";""
7614;1;"Santa Clara Saniku Gakuin";"";"4250 Latimer Ave";"sa n Jose";"CA";"";"";"";"408-378-8190";"Eiichi Yoshida";"";""
7615;10;"5ive Planets ISH/US Embassy";"";"7-8 Nishikama";"Asahiko";"Tokohama";"";"Japan";"";"045-382-1196";"Patricia Bader-Johnston";"";""
7616;2;"Learnika Learning Center";"";"572 College Ave";"PA";"";"";"";"";"650-248-2800";"Tony Lee";"";""
7617;2;"Menlo Park Girls Camp";"";"3865 Middlefield Rd";"";"";"";"";"";"650-207-6451";"Lisa Branson";"";""
7618;10;"Miles for Migraines";"";"PO Box 20237";"oakland";"ca";"";"";"";"415-524-6037";"Janet Corroo";"";""
7619;9;"Sunnyvale Comm Services-a Place at the Table";"";"725 Kifer Rd";"sunnyvale";"CA";"";"";"";"";"Jaimie Colleen";"jamiecolleen@hotmail.com";""
7620;6;"Willow Oaks School";"";"620 Willow Rd";"Menlo Park";"CA";"";"";"";"650-329-2850";"Jon Mewes";"";""
7621;4;"Bay Area Ridge Trail Council";"";"1007 General Kennedy Ave St 3";"San Francisco";"CA";"94129";"";"";"415-561-2595";"Joel Gartland";"";""
7622;4;"Trail Center";"";"3921 E Bayshore";"PAlo Alto";"CA";"";"";"";"650-968-7065";"Justin Knowles";"";""
7623;2;"YMCA-SF";"";"11000 Pescadero Rd";"La Honda";"CA";"94020";"";"";"650-747-1200";"Jessi Prevost";"";""
7624;3;"Brisgepoint Senior Living Community";"";"1174 Los Altos Ave";"Los Altos";"CA";"";"";"";"650-948-7337";"Alex Gerasimov";"";""
7625;8;"Day Worker Center of MV";"Day Worker Center of MV";"113 Escuela Ave";"Mountain View";"CA";"94040";"";"";"650-903-4102";"Arden Ratcliff";"";""
7626;8;"Puente Resource Center";"Puente Resource Center";"620 North St";"Pescadero";"";"94060";"";"";"650-879-1691";"";"";""
7627;2;"Neighborhood Arts";"Neighborhood Arts";"2572 Webster St";"PA";"CA";"";"";"";"650-283-9863";"Joan Bigwood";"";""
7628;7;"Asian American Donor rogram";"";"2169 Harbor Bay Parkway";"Alameda";"CA";"94502";"";"";"";"Ruby Law";"";""
7629;7;"Mayview Community Health Center";"";"270 Grant Avenue";"Palo Alto";"CA";"94306";"";"";"";"Fran Goodman";"fgoodman@mayview.org";""
7630;10;"Sierra Service Project";"";"P.O Box 992";"Carmichael";"CA";"95609";"";"";"916-488-6441";"Franklyn Shen";"";""
7631;10;"CASSY";"";"555 Byrant Street#126";"PA";"CA";"";"";"";"650-521-5311";"Ikei Michelle";"";""
7632;1;"not sure";"";"555 Byrant Street#100";"PA";"CA";"";"";"";"";"";"";""
7633;10;"Camp Iris Way";"";"241 Iris Way ";"PA";"CA";"94303";"";"";"650-799-1646";"Bora Chung";"";""
7634;10;"Summer Learninf Buddies";"";"764 Marion Avenue";"PA";"CA";"";"";"";"650-269-6656";"Carrie Manley";"";""
7635;4;"Friends of Palo Alto Animal Shelter";"";"3072 Waverley St.";"PA";"CA";"";"";"";"650-714-8507";"catherine kirkman";"";""
7636;4;"not sure-2";"";"#1 vista";"PA";"CA";"";"";"";"";"";"";""
7637;10;"BLue Star";"";"96 Jessie Street, 3rd Flooe";"SF";"CA";"94105";"";"";"";"Kerri Podlas";"kp@bluestarpr.com";""
7638;4;"Transparent Fish Fund";"";"445 South San Antonio Road, suite 204";"montain view";"CA";"";"";"";"650-924-1104";"Angela Torres";"";""
7639;10;"Royal Canadian Army Cadet";"";"530 Queens Avenue, New Westminster";"BC";"V3L 4Z7";"";"Canada";"";"";"Robert Chessel";"";""
7640;10;"Burnaby Alliance Church";"";"8611 Armstrong Avenue, Burnaby";"BC";"";"";"Canada";"";"604-524-3336";"Joan Fong";"";""
7641;10;"Vancuvour College";"";"5400 Carfier Street";"Vancuvour";"V6M 2A5";"";"Canada";"";"604-281-4285";"Jon Fagulao";"";""
7642;1;"Santa Clara County Library";"";"13 South San Antonio Road";"Los Altos";"CA";"94022";"";"";"650-948-7683";"Jane Cronkhite";"";""
7643;10;"CENTRO CRISTIANO SION";"";"1662 BROADWAY ST";"REdwood city";"CA";"94063";"";"";"(650) 369-8707";"";"";""
7644;1;"Quest and Learning Center";"";"2415 University Ave. ";"E. PA";"CA";"94303";"";"";"650-321-7712";"Darwin Eustaquio";"";""
7645;7;"Green Meadow Marlins";"";"303 Parkside Drive";"PA";"";"";"";"";"650-494-3157";"Sigrid Pinsky";"";""
7646;1;"St. Michael's Preschool";"";"401 Hudson Street";"Redwood City";"CA";"";"";"";"650-690-8230";"Essam Elissa";"";""
7647;1;"Club Academia";"";"33 Chester Circle";"Los Altos";"CA";"";"";"";"650-305-0066";"Madhu Yariagadda";"";""
7648;10;"Organizing for Action-Silicon Valley North";"";"2035 California Street, Apt 15";"Mountain View ";"CA";"";"";"";"";"Josh Wolf";"wolf.josh.j@gmail.com";""
7649;10;"PALY-community service club";"";"50 Embarcadero Road";"";"";"";"";"";"";"Estner Woj";"ewojcicki@pausd.org";""
7650;10;"Institute on Aging";"";"291 Lambert Avenue";"Los Altos";"CA";"94306";"";"";"650-329-1411";"Amy Andonian";"";""
7651;10;"PALY-Eating Disorder Awarness Club";"";"50 Embarcadero Road";"Palo Alto";"CA";"";"";"";" ";" Filppu";"";""
7652;10;"Kennolyn Camps";"";"8205 Glen HAven Road";"Soquel";"CA";"95073";"";"";"831-479-6714";"Max and Marion Cladwell";"";""
7653;2;"American Martial Arts Academy";"";"916 south Bascom Avenue";"San Jose";"CA";"95125";"";"";"408-799-4927";"Dustin Cloud";"";""
7654;2;"Laces Soccer";"";"3910 Duncan Place";"Palo Alto";"CA";"94306";"";"";"650-815-5971";"Bhalravi Parich";"";""
7655;10;"Camp Ramah in California";"";"17525 ventura Blvd.suite 201";"Encino";"CA";"91316";"";"";"310-476-8571";"Rabbi Jospeph Menashe";"";""
7656;1;"ACME education group";"";"4000 Middlefiled Road Suite L1";"PA";"CA";"94306";"";"";"650-387-0545";"Wei Chen";"";""
7657;1;"American Democracy Project";"";"1307 New York, Suite 500";"Washington";"DC";"20005";"";"";"202-478-4656";"Stephanie R. South";"";""
7658;4;"US Geological Survey (USGS)";"US Geological Survey (USGS)";"345 Middlefield Rd";"Menlo Park";"CA";"94025";"";"";"650-329-4855";"Lourdes Gardner";"";""
7659;1;"Madhok Foundation";"Madhok Foundation";"MCD Community Center, 1st Floor, Sunlight Colony - 1";"New Delhi";"";"110014";"India";"";"011-26346351";"Kurian Babu";"";""
7660;1;"Sora Japanese School";"Sora Japanese School";"1485 El Camino Real";"Belmont";"CA";"";"";"";"650-993-2300";"Chizuru Toyama";"";""
